SQL_Id,GET_API_Id,SQL_TypeId,GET_API_TypeId,SQL_Reference,GET_API_Reference,SQL_CurrentStatus,GET_API_CurrentStatus,SQL_StorageId,GET_API_StorageId,SQL_IsRenewal,GET_API_IsRenewal,SQL_IsYacht,GET_API_IsYacht,SQL_RiskId,GET_API_RiskId,SQL_VesselId,GET_API_VesselId,SQL_PolicyId,GET_API_PolicyId,SQL_MemberPartyId,GET_API_MemberPartyId,SQL_OwnerPartyId,GET_APIOwnerPartyId_,SQL_BrokerPartyId,GET_API_BrokerPartyId,SQL_TradingCertificateVersion,GET_API_TradingCertificateVersion,SQL_RiskReference,GET_API_RiskReference,SQL_VesselReference,GET_API_VesselReference,SQL_PolicyReference,GET_API_PolicyReference,SQL_MemberReference,GET_API_MemberReference,SQL_MemberType,GET_API_MemberType,SQL_MemberName,GET_API_MemberName,SQL_OwnerDomicile,GET_API_OwnerDomicile,SQL_OwnerEmailAddress,GET_API_OwnerEmailAddress,SQL_OwnerReference,GET_API_OwnerReference,SQL_OwnerName,GET_API_OwnerName,SQL_BrokerReference,GET_API_BrokerReference,SQL_BrokerName,GET_API_BrokerName,SQL_BrokerEmailAddress,GET_API_BrokerEmailAddress,SQL_PolicyYear,GET_API_policyYear,SQL_EmailAddress,GET_API_EmailAddress,SQL_CurrencyCode,GET_API_CurrencyCode,SQL_SignatoryState_Id,GET_API_SignatoryState,SQL_VesselName,GET_API_VesselName,SQL_VesselFlag,GET_API_VesselFlag,SQL_VesselType,GET_API_VesselType,SQL_VesselTypeName,GET_API_VesselTypeName,SQL_PassengerCapacity,GET_API_PassengerCapacity,SQL_IMONumber,GET_API_IMONumber,SQL_EngineHorsePower,GET_API_EngineHorsePower,SQL_TradeMark,GET_API_TradeMark,SQL_Model,GET_API_Model,SQL_EngineNo,GET_API_EngineNo,SQL_TenderReferenceList,GET_API_TenderReferenceList,SQL_TenderOutboardReferenceList,GET_API_TenderOutboardReferenceList,SQL_DistinctiveNumbersOrLetters,GET_API_DistinctiveNumbersOrLetters,SQL_GrossTonnage,GET_API_GrossTonnage,SQL_YearBuilt,GET_API_YearBuilt,SQL_PortOfRegistry,GET_API_PortOfRegistry,SQL_AddressType_Id,GET_API_AddressType_Id,SQL_JointAssuredName,GET_API_JointAssuredName,SQL_SourceSystem,GET_API_SourceSystem,Result
89,89,1,1,string,string,DRAFT,DRAFT,string,string,true,true,true,true,0,0,0,0,0,0,0,0,0,0,0,0,1,1,string,string,string,string,string,string,string,string,string,string,string,string,string,string,string,string,string,string,string,string,string,string,string,string,string,string,string,string,string,string,USD,USD,0,string,string,string,string,string,string,string,string,0,0,null,null,string,string,null,null,string,string,string,string,string,string,string,string,string,string,string,string,0,0,string,string,1,1,string,string,UTOM,UTOM,Test Case Passed
90,90,1,1,string,string,DRAFT,DRAFT,string,string,true,true,true,true,0,0,0,0,0,0,0,0,0,0,0,0,2,2,string,string,string,string,string,string,string,string,string,string,string,string,string,string,string,string,string,string,string,string,string,string,string,string,string,string,string,string,string,string,USD,USD,0,string,string,string,string,string,string,string,string,0,0,null,null,string,string,null,null,string,string,string,string,string,string,string,string,string,string,string,string,0,0,string,string,1,1,string,string,UTOM,UTOM,Test Case Passed
91,91,9,9,string,string,DRAFT,DRAFT,string,string,true,true,true,true,0,0,0,0,0,0,0,0,0,0,0,0,1,1,string,string,string,string,string,string,string,string,string,string,string,string,string,string,string,string,string,string,string,string,string,string,string,string,string,string,string,string,string,string,USD,USD,0,string,string,string,string,string,string,string,string,0,0,null,null,string,string,null,null,string,string,string,string,string,string,string,string,string,string,string,string,0,0,string,string,1,1,string,string,UTOM,UTOM,Test Case Passed
92,92,9,9,string,string,DRAFT,DRAFT,string,string,true,true,true,true,0,0,0,0,0,0,0,0,0,0,0,0,2,2,string,string,string,string,string,string,string,string,string,string,string,string,string,string,string,string,string,string,string,string,string,string,string,string,string,string,string,string,string,string,USD,USD,0,string,string,string,string,string,string,string,string,0,0,null,null,string,string,null,null,string,string,string,string,string,string,string,string,string,string,string,string,0,0,string,string,1,1,string,string,UTOM,UTOM,Test Case Passed
93,93,9,9,string,string,DRAFT,DRAFT,string,string,true,true,true,true,0,0,0,0,0,0,0,0,0,0,0,0,2,2,string,string,string,string,string,string,string,string,string,string,string,string,string,string,string,string,string,string,string,string,string,string,string,string,string,string,string,string,string,string,USD,USD,0,string,string,string,string,string,string,string,string,0,0,null,null,string,string,null,null,string,string,string,string,string,string,string,string,string,string,string,string,0,0,string,string,1,1,string,string,UTOM,UTOM,Test Case Passed
94,94,11,11,string,string,DRAFT,DRAFT,string,string,true,true,true,true,0,0,0,0,0,0,0,0,0,0,0,0,1,1,string,string,string,string,string,string,string,string,string,string,string,string,string,string,string,string,string,string,string,string,string,string,string,string,string,string,string,string,string,string,USD,USD,0,string,string,string,string,string,string,string,string,0,0,null,null,string,string,null,null,string,string,string,string,string,string,string,string,string,string,string,string,0,0,string,string,6,6,string,string,UTOM,UTOM,Test Case Passed
96,96,11,11,string,string,DRAFT,DRAFT,string,string,false,false,false,false,0,0,0,0,0,0,0,0,null,null,null,null,1,1,null,null,null,null,null,null,null,null,null,null,null,null,null,null,null,null,null,null,null,null,null,null,null,null,null,null,null,null,null,null,null,null,null,null,null,null,null,null,null,null,null,null,null,null,null,null,null,null,null,null,null,null,null,null,null,null,null,null,null,null,null,null,null,string,string,6,6,null,null,UTOM,UTOM,Test Case Passed
97,97,11,11,string,string,DRAFT,DRAFT,string,string,false,false,false,false,0,0,0,0,0,0,0,0,null,null,null,null,1,1,TEST,TEST,null,null,null,null,null,null,null,null,Test3Member Variation1,Test3Member Variation1,null,null,null,null,null,null,null,null,null,null,null,null,null,null,2022,2022,null,null,null,null,null,null,null,null,null,null,null,null,null,null,null,null,null,null,null,null,null,null,null,null,null,null,null,null,null,null,null,null,null,null,null,string,string,6,6,null,null,UTOM,UTOM,Test Case Passed
98,98,11,11,string,string,DRAFT,DRAFT,string,string,false,false,false,false,0,0,0,0,0,0,0,0,null,null,null,null,2,2,TEST,TEST,null,null,null,null,null,null,null,null,Test3Member Variation1,Test3Member Variation1,null,null,null,null,null,null,null,null,null,null,null,null,null,null,2022,2022,null,null,null,null,null,null,null,null,null,null,null,null,null,null,null,null,null,null,null,null,null,null,null,null,null,null,null,null,null,null,null,null,null,null,null,string,string,6,6,null,null,UTOM,UTOM,Test Case Passed
99,99,11,11,string,string,DRAFT,DRAFT,string,string,false,false,false,false,0,0,0,0,0,0,0,0,null,null,null,null,2,2,TEST,TEST,null,null,null,null,null,null,null,null,Test3Member Variation1,Test3Member Variation1,null,null,null,null,null,null,null,null,null,null,null,null,null,null,2022,2022,null,null,null,null,null,null,null,null,null,null,null,null,null,null,null,null,null,null,null,null,null,null,null,null,null,null,null,null,null,null,null,null,null,null,null,string,string,6,6,null,null,UTOM,UTOM,Test Case Passed
100,100,1,1,123654,123654,DRAFT,DRAFT,string,string,true,true,true,true,130179,130179,130179,130179,1044648,1044648,112673,112673,0,0,1,1,1,1,682637,682637,682637,682637,1044648,1044648,73328,73328,N/K,N/K,Test3Member Variation1,Test3Member Variation1,N/K,N/K,N/K,N/K,N/K,N/K,N/K,N/K,104,104,POST & CO (P & I),POST & CO (P & I),claims@post-co.com,claims@post-co.com,2022,2022,string,string,USD,USD,263,Test3Policy Risk,Test3Policy Risk,ITALY,ITALY,YA,YA,YACHT CHARTER 13+ PAX,YACHT CHARTER 13+ PAX,0,0,null,null,N/K,N/K,null,null,N/K,N/K,N/K,N/K,N/K,N/K,N/K,N/K,f56,f56,2500,2500,2012,2012,TRIESTE,TRIESTE,1,1,N/K,N/K,UTOM,UTOM,Test Case Passed
101,101,1,1,123654,123654,DRAFT,DRAFT,string,string,true,true,true,true,130179,130179,130179,130179,1044648,1044648,112673,112673,0,0,1,1,2,2,682637,682637,682637,682637,1044648,1044648,73328,73328,N/K,N/K,Test3Member Variation1,Test3Member Variation1,N/K,N/K,N/K,N/K,N/K,N/K,N/K,N/K,104,104,POST & CO (P & I),POST & CO (P & I),claims@post-co.com,claims@post-co.com,2022,2022,string,string,USD,USD,263,Test3Policy Risk,Test3Policy Risk,ITALY,ITALY,YA,YA,YACHT CHARTER 13+ PAX,YACHT CHARTER 13+ PAX,0,0,null,null,N/K,N/K,null,null,N/K,N/K,N/K,N/K,N/K,N/K,N/K,N/K,f56,f56,2500,2500,2012,2012,TRIESTE,TRIESTE,1,1,N/K,N/K,UTOM,UTOM,Test Case Passed
128,128,1,1,123654,123654,DRAFT,DRAFT,string,string,true,true,true,true,130179,130179,130179,130179,1044648,1044648,112673,112673,0,0,1,1,2,2,682637,682637,682637,682637,1044648,1044648,73328,73328,N/K,N/K,Test3Member Variation1,Test3Member Variation1,N/K,N/K,N/K,N/K,N/K,N/K,N/K,N/K,104,104,POST & CO (P & I),POST & CO (P & I),claims@post-co.com,claims@post-co.com,2022,2022,string,string,USD,USD,263,Test3Policy Risk,Test3Policy Risk,ITALY,ITALY,YA,YA,YACHT CHARTER 13+ PAX,YACHT CHARTER 13+ PAX,0,0,null,null,N/K,N/K,null,null,N/K,N/K,N/K,N/K,N/K,N/K,N/K,N/K,f56,f56,2500,2500,2012,2012,TRIESTE,TRIESTE,1,1,N/K,N/K,UTOM,UTOM,Test Case Passed
129,129,1,1,123654,123654,DRAFT,DRAFT,string,string,true,true,true,true,130179,130179,130179,130179,1044648,1044648,112673,112673,0,0,1,1,2,2,682637,682637,682637,682637,1044648,1044648,73328,73328,N/K,N/K,Test3Member Variation1,Test3Member Variation1,N/K,N/K,N/K,N/K,N/K,N/K,N/K,N/K,104,104,POST & CO (P & I),POST & CO (P & I),claims@post-co.com,claims@post-co.com,2022,2022,string,string,USD,USD,263,Test3Policy Risk,Test3Policy Risk,ITALY,ITALY,YA,YA,YACHT CHARTER 13+ PAX,YACHT CHARTER 13+ PAX,0,0,null,null,N/K,N/K,null,null,N/K,N/K,N/K,N/K,N/K,N/K,N/K,N/K,f56,f56,2500,2500,2012,2012,TRIESTE,TRIESTE,1,1,N/K,N/K,UTOM,UTOM,Test Case Passed
130,130,1,1,123654,123654,DRAFT,DRAFT,string,string,true,true,true,true,130179,130179,130179,130179,1044648,1044648,112673,112673,0,0,1,1,2,2,682637,682637,682637,682637,1044648,1044648,73328,73328,N/K,N/K,Test3Member Variation1,Test3Member Variation1,N/K,N/K,N/K,N/K,N/K,N/K,N/K,N/K,104,104,POST & CO (P & I),POST & CO (P & I),claims@post-co.com,claims@post-co.com,2022,2022,string,string,USD,USD,263,Test3Policy Risk,Test3Policy Risk,ITALY,ITALY,YA,YA,YACHT CHARTER 13+ PAX,YACHT CHARTER 13+ PAX,0,0,null,null,N/K,N/K,null,null,N/K,N/K,N/K,N/K,N/K,N/K,N/K,N/K,f56,f56,2500,2500,2012,2012,TRIESTE,TRIESTE,1,1,N/K,N/K,UTOM,UTOM,Test Case Passed
131,131,1,1,123654,123654,DRAFT,DRAFT,string,string,true,true,true,true,130179,130179,130179,130179,1044648,1044648,112673,112673,0,0,1,1,2,2,682637,682637,682637,682637,1044648,1044648,73328,73328,N/K,N/K,Test3Member Variation1,Test3Member Variation1,N/K,N/K,N/K,N/K,N/K,N/K,N/K,N/K,104,104,POST & CO (P & I),POST & CO (P & I),claims@post-co.com,claims@post-co.com,2022,2022,string,string,USD,USD,263,Test3Policy Risk,Test3Policy Risk,ITALY,ITALY,YA,YA,YACHT CHARTER 13+ PAX,YACHT CHARTER 13+ PAX,0,0,null,null,N/K,N/K,null,null,N/K,N/K,N/K,N/K,N/K,N/K,N/K,N/K,f56,f56,2500,2500,2012,2012,TRIESTE,TRIESTE,1,1,N/K,N/K,UTOM,UTOM,Test Case Passed
132,132,1,1,123654,123654,DRAFT,DRAFT,string,string,true,true,true,true,130179,130179,130179,130179,1044648,1044648,112673,112673,0,0,1,1,2,2,682637,682637,682637,682637,1044648,1044648,73328,73328,N/K,N/K,Test3Member Variation1,Test3Member Variation1,N/K,N/K,N/K,N/K,N/K,N/K,N/K,N/K,104,104,POST & CO (P & I),POST & CO (P & I),claims@post-co.com,claims@post-co.com,2022,2022,string,string,USD,USD,263,Test3Policy Risk,Test3Policy Risk,ITALY,ITALY,YA,YA,YACHT CHARTER 13+ PAX,YACHT CHARTER 13+ PAX,0,0,null,null,N/K,N/K,null,null,N/K,N/K,N/K,N/K,N/K,N/K,N/K,N/K,f56,f56,2500,2500,2012,2012,TRIESTE,TRIESTE,1,1,N/K,N/K,UTOM,UTOM,Test Case Passed
133,133,2,2,123654,123654,DRAFT,DRAFT,string,string,true,true,true,true,130179,130179,130179,130179,1044648,1044648,112673,112673,0,0,1,1,1,1,682637,682637,682637,682637,1044648,1044648,73328,73328,N/K,N/K,Test3Member Variation1,Test3Member Variation1,N/K,N/K,N/K,N/K,N/K,N/K,N/K,N/K,104,104,POST & CO (P & I),POST & CO (P & I),claims@post-co.com,claims@post-co.com,2022,2022,string,string,USD,USD,263,Test3Policy Risk,Test3Policy Risk,ITALY,ITALY,YA,YA,YACHT CHARTER 13+ PAX,YACHT CHARTER 13+ PAX,0,0,null,null,N/K,N/K,null,null,N/K,N/K,N/K,N/K,N/K,N/K,N/K,N/K,f56,f56,2500,2500,2012,2012,TRIESTE,TRIESTE,1,1,N/K,N/K,UTOM,UTOM,Test Case Passed
134,134,2,2,123654,123654,DRAFT,DRAFT,string,string,true,true,true,true,130179,130179,130179,130179,1044648,1044648,112673,112673,0,0,1,1,2,2,682637,682637,682637,682637,1044648,1044648,73328,73328,N/K,N/K,Test3Member Variation1,Test3Member Variation1,N/K,N/K,N/K,N/K,N/K,N/K,N/K,N/K,104,104,POST & CO (P & I),POST & CO (P & I),claims@post-co.com,claims@post-co.com,2022,2022,string,string,USD,USD,263,Test3Policy Risk,Test3Policy Risk,ITALY,ITALY,YA,YA,YACHT CHARTER 13+ PAX,YACHT CHARTER 13+ PAX,0,0,null,null,N/K,N/K,null,null,N/K,N/K,N/K,N/K,N/K,N/K,N/K,N/K,f56,f56,2500,2500,2012,2012,TRIESTE,TRIESTE,1,1,N/K,N/K,UTOM,UTOM,Test Case Passed
135,135,2,2,123654,123654,DRAFT,DRAFT,string,string,true,true,true,true,130179,130179,130179,130179,1044648,1044648,112673,112673,0,0,1,1,2,2,682637,682637,682637,682637,1044648,1044648,73328,73328,N/K,N/K,Test3Member Variation1,Test3Member Variation1,N/K,N/K,N/K,N/K,N/K,N/K,N/K,N/K,104,104,POST & CO (P & I),POST & CO (P & I),claims@post-co.com,claims@post-co.com,2022,2022,string,string,USD,USD,263,Test3Policy Risk,Test3Policy Risk,ITALY,ITALY,YA,YA,YACHT CHARTER 13+ PAX,YACHT CHARTER 13+ PAX,0,0,null,null,N/K,N/K,null,null,N/K,N/K,N/K,N/K,N/K,N/K,N/K,N/K,f56,f56,2500,2500,2012,2012,TRIESTE,TRIESTE,1,1,N/K,N/K,UTOM,UTOM,Test Case Passed
136,136,2,2,123654,123654,DRAFT,DRAFT,string,string,true,true,true,true,130179,130179,130179,130179,1044648,1044648,112673,112673,0,0,1,1,2,2,682637,682637,682637,682637,1044648,1044648,73328,73328,N/K,N/K,Test3Member Variation1,Test3Member Variation1,N/K,N/K,N/K,N/K,N/K,N/K,N/K,N/K,104,104,POST & CO (P & I),POST & CO (P & I),claims@post-co.com,claims@post-co.com,2022,2022,string,string,USD,USD,263,Test3Policy Risk,Test3Policy Risk,ITALY,ITALY,YA,YA,YACHT CHARTER 13+ PAX,YACHT CHARTER 13+ PAX,0,0,null,null,N/K,N/K,null,null,N/K,N/K,N/K,N/K,N/K,N/K,N/K,N/K,f56,f56,2500,2500,2012,2012,TRIESTE,TRIESTE,1,1,N/K,N/K,UTOM,UTOM,Test Case Passed
137,137,1,1,123654,123654,DRAFT,DRAFT,string,string,true,true,true,true,130179,130179,130179,130179,1044648,1044648,112673,112673,0,0,1,1,2,2,682637,682637,682637,682637,1044648,1044648,73328,73328,N/K,N/K,Test3Member Variation1,Test3Member Variation1,N/K,N/K,N/K,N/K,N/K,N/K,N/K,N/K,104,104,POST & CO (P & I),POST & CO (P & I),claims@post-co.com,claims@post-co.com,2022,2022,string,string,USD,USD,263,Test3Policy Risk,Test3Policy Risk,ITALY,ITALY,YA,YA,YACHT CHARTER 13+ PAX,YACHT CHARTER 13+ PAX,0,0,null,null,N/K,N/K,null,null,N/K,N/K,N/K,N/K,N/K,N/K,N/K,N/K,f56,f56,2500,2500,2012,2012,TRIESTE,TRIESTE,1,1,N/K,N/K,UTOM,UTOM,Test Case Passed
152,152,14,14,123654,123654,DRAFT,DRAFT,string,string,true,true,true,true,130179,130179,130179,130179,1044648,1044648,112673,112673,0,0,1,1,1,1,682637,682637,682637,682637,1044648,1044648,73328,73328,N/K,N/K,Test3Member Variation1,Test3Member Variation1,N/K,N/K,N/K,N/K,N/K,N/K,N/K,N/K,104,104,POST & CO (P & I),POST & CO (P & I),claims@post-co.com,claims@post-co.com,2022,2022,string,string,USD,USD,263,Test3Policy Risk,Test3Policy Risk,ITALY,ITALY,YA,YA,YACHT CHARTER 13+ PAX,YACHT CHARTER 13+ PAX,0,0,null,null,N/K,N/K,null,null,N/K,N/K,N/K,N/K,N/K,N/K,N/K,N/K,f56,f56,2500,2500,2012,2012,TRIESTE,TRIESTE,1,1,N/K,N/K,UTOM,UTOM,Test Case Passed
153,153,1,1,123654,123654,DRAFT,DRAFT,string,string,true,true,true,true,130179,130179,130179,130179,1044648,1044648,112673,112673,0,0,1,1,2,2,682637,682637,682637,682637,1044648,1044648,73328,73328,N/K,N/K,Test3Member Variation1,Test3Member Variation1,N/K,N/K,N/K,N/K,N/K,N/K,N/K,N/K,104,104,POST & CO (P & I),POST & CO (P & I),claims@post-co.com,claims@post-co.com,2022,2022,string,string,USD,USD,263,Test3Policy Risk,Test3Policy Risk,ITALY,ITALY,YA,YA,YACHT CHARTER 13+ PAX,YACHT CHARTER 13+ PAX,0,0,null,null,N/K,N/K,null,null,N/K,N/K,N/K,N/K,N/K,N/K,N/K,N/K,f56,f56,2500,2500,2012,2012,TRIESTE,TRIESTE,1,1,N/K,N/K,UTOM,UTOM,Test Case Passed
160,160,7,7,123654,123654,DRAFT,DRAFT,string,string,true,true,true,true,130179,130179,130179,130179,1044648,1044648,112673,112673,0,0,1,1,1,1,682637,682637,682637,682637,1044648,1044648,73328,73328,N/K,N/K,Test3Member Variation1,Test3Member Variation1,N/K,N/K,N/K,N/K,N/K,N/K,N/K,N/K,104,104,POST & CO (P & I),POST & CO (P & I),claims@post-co.com,claims@post-co.com,2022,2022,string,string,USD,USD,263,Test3Policy Risk,Test3Policy Risk,ITALY,ITALY,YA,YA,YACHT CHARTER 13+ PAX,YACHT CHARTER 13+ PAX,0,0,null,null,N/K,N/K,null,null,N/K,N/K,N/K,N/K,N/K,N/K,N/K,N/K,f56,f56,2500,2500,2012,2012,TRIESTE,TRIESTE,4,4,N/K,N/K,UTOM,UTOM,Test Case Passed
196,196,10,10,123654,123654,DRAFT,DRAFT,string,string,true,true,true,true,130179,130179,130179,130179,1044648,1044648,112673,112673,0,0,1,1,1,1,682637,682637,682637,682637,1044648,1044648,73328,73328,N/K,N/K,Test3Member Variation1,Test3Member Variation1,N/K,N/K,N/K,N/K,N/K,N/K,N/K,N/K,104,104,POST & CO (P & I),POST & CO (P & I),claims@post-co.com,claims@post-co.com,2022,2022,string,string,USD,USD,263,Test3Policy Risk,Test3Policy Risk,ITALY,ITALY,YA,YA,YACHT CHARTER 13+ PAX,YACHT CHARTER 13+ PAX,0,0,null,null,N/K,N/K,null,null,N/K,N/K,N/K,N/K,N/K,N/K,N/K,N/K,f56,f56,2500,2500,2012,2012,TRIESTE,TRIESTE,6,6,N/K,N/K,UTOM,UTOM,Test Case Passed
212,212,16,16,123654,123654,DRAFT,DRAFT,string,string,true,true,true,true,130179,130179,130179,130179,1044648,1044648,112673,112673,0,0,1,1,1,1,682637,682637,682637,682637,1044648,1044648,73328,73328,N/K,N/K,Test3Member Variation1,Test3Member Variation1,N/K,N/K,N/K,N/K,N/K,N/K,N/K,N/K,104,104,POST & CO (P & I),POST & CO (P & I),claims@post-co.com,claims@post-co.com,2022,2022,string,string,USD,USD,263,Test3Policy Risk,Test3Policy Risk,ITALY,ITALY,YA,YA,YACHT CHARTER 13+ PAX,YACHT CHARTER 13+ PAX,0,0,null,null,N/K,N/K,null,null,N/K,N/K,N/K,N/K,N/K,N/K,N/K,N/K,f56,f56,2500,2500,2012,2012,TRIESTE,TRIESTE,2,2,N/K,N/K,UTOM,UTOM,Test Case Passed
213,213,4,4,string,string,DRAFT,DRAFT,string,string,true,true,true,true,0,0,0,0,0,0,0,0,0,0,0,0,1,1,string,string,string,string,string,string,string,string,string,string,string,string,string,string,string,string,string,string,string,string,string,string,string,string,string,string,string,string,string,string,USD,USD,0,string,string,string,string,string,string,string,string,0,0,null,null,string,string,null,null,string,string,string,string,string,string,string,string,string,string,string,string,0,0,string,string,3,3,string,string,UTOM,UTOM,Test Case Passed
214,214,4,4,string,string,DRAFT,DRAFT,string,string,true,true,true,true,0,0,0,0,0,0,0,0,0,0,0,0,2,2,string,string,string,string,string,string,string,string,string,string,string,string,string,string,string,string,string,string,string,string,string,string,string,string,string,string,string,string,string,string,USD,USD,0,string,string,string,string,string,string,string,string,0,0,null,null,string,string,null,null,string,string,string,string,string,string,string,string,string,string,string,string,0,0,string,string,3,3,string,string,UTOM,UTOM,Test Case Passed
215,215,4,4,string,string,DRAFT,DRAFT,string,string,true,true,true,true,0,0,0,0,0,0,0,0,0,0,0,0,2,2,string,string,string,string,string,string,string,string,string,string,string,string,string,string,string,string,string,string,string,string,string,string,string,string,string,string,string,string,string,string,USD,USD,0,string,string,string,string,string,string,string,string,0,0,null,null,string,string,null,null,string,string,string,string,string,string,string,string,string,string,string,string,0,0,string,string,5,5,string,string,UTOM,UTOM,Test Case Passed
216,216,16,16,123654,123654,DRAFT,DRAFT,string,string,true,true,true,true,130179,130179,130179,130179,1044648,1044648,112673,112673,0,0,1,1,2,2,682637,682637,682637,682637,1044648,1044648,73328,73328,N/K,N/K,Test3Member Variation1,Test3Member Variation1,N/K,N/K,N/K,N/K,N/K,N/K,N/K,N/K,104,104,POST & CO (P & I),POST & CO (P & I),claims@post-co.com,claims@post-co.com,2022,2022,string,string,USD,USD,263,Test3Policy Risk,Test3Policy Risk,ITALY,ITALY,YA,YA,YACHT CHARTER 13+ PAX,YACHT CHARTER 13+ PAX,0,0,null,null,N/K,N/K,null,null,N/K,N/K,N/K,N/K,N/K,N/K,N/K,N/K,f56,f56,2500,2500,2012,2012,TRIESTE,TRIESTE,2,2,N/K,N/K,UTOM,UTOM,Test Case Passed
237,237,21,21,123654,123654,DRAFT,DRAFT,string,string,true,true,true,true,130179,130179,130179,130179,1044648,1044648,112673,112673,0,0,1,1,1,1,682637,682637,682637,682637,1044648,1044648,73328,73328,N/K,N/K,Test3Member Variation1,Test3Member Variation1,N/K,N/K,N/K,N/K,N/K,N/K,N/K,N/K,104,104,POST & CO (P & I),POST & CO (P & I),claims@post-co.com,claims@post-co.com,2022,2022,string,string,USD,USD,263,Test3Policy Risk,Test3Policy Risk,ITALY,ITALY,YA,YA,YACHT CHARTER 13+ PAX,YACHT CHARTER 13+ PAX,0,0,null,null,N/K,N/K,null,null,N/K,N/K,N/K,N/K,N/K,N/K,N/K,N/K,f56,f56,2500,2500,2012,2012,TRIESTE,TRIESTE,7,7,N/K,N/K,UTOM,UTOM,Test Case Passed
238,238,4,4,string,string,DRAFT,DRAFT,string,string,true,true,true,true,0,0,0,0,0,0,0,0,0,0,0,0,2,2,string,string,string,string,string,string,string,string,string,string,string,string,string,string,string,string,string,string,string,string,string,string,string,string,string,string,string,string,string,string,USD,USD,0,string,string,string,string,string,string,string,string,0,0,null,null,string,string,null,null,string,string,string,string,string,string,string,string,string,string,string,string,0,0,string,string,8,8,string,string,UTOM,UTOM,Test Case Passed
244,244,1,1,123654,123654,DRAFT,DRAFT,string,string,true,true,true,true,130179,130179,130179,130179,1044648,1044648,112673,112673,0,0,1,1,2,2,682637,682637,682637,682637,1044648,1044648,73328,73328,N/K,N/K,Test3Member Variation1,Test3Member Variation1,N/K,N/K,N/K,N/K,N/K,N/K,N/K,N/K,104,104,POST & CO (P & I),POST & CO (P & I),claims@post-co.com,claims@post-co.com,2022,2022,string,string,USD,USD,263,Test3Policy Risk,Test3Policy Risk,ITALY,ITALY,YA,YA,YACHT CHARTER 13+ PAX,YACHT CHARTER 13+ PAX,0,0,null,null,N/K,N/K,null,null,N/K,N/K,N/K,N/K,N/K,N/K,N/K,N/K,f56,f56,2500,2500,2012,2012,TRIESTE,TRIESTE,2,2,N/K,N/K,UTOM,UTOM,Test Case Passed
245,245,1,1,123654,123654,DRAFT,DRAFT,string,string,true,true,true,true,130179,130179,130179,130179,1044648,1044648,112673,112673,0,0,1,1,2,2,682637,682637,682637,682637,1044648,1044648,73328,73328,N/K,N/K,Test3Member Variation1,Test3Member Variation1,N/K,N/K,N/K,N/K,N/K,N/K,N/K,N/K,104,104,POST & CO (P & I),POST & CO (P & I),claims@post-co.com,claims@post-co.com,2022,2022,string,string,USD,USD,263,Test3Policy Risk,Test3Policy Risk,ITALY,ITALY,YA,YA,YACHT CHARTER 13+ PAX,YACHT CHARTER 13+ PAX,0,0,null,null,N/K,N/K,null,null,N/K,N/K,N/K,N/K,N/K,N/K,N/K,N/K,f56,f56,2500,2500,2012,2012,TRIESTE,TRIESTE,2,2,N/K,N/K,UTOM,UTOM,Test Case Passed
246,246,1,1,123654,123654,DRAFT,DRAFT,string,string,true,true,true,true,130179,130179,130179,130179,1044648,1044648,112673,112673,0,0,1,1,2,2,682637,682637,682637,682637,1044648,1044648,73328,73328,N/K,N/K,Test3Member Variation1,Test3Member Variation1,N/K,N/K,N/K,N/K,N/K,N/K,N/K,N/K,104,104,POST & CO (P & I),POST & CO (P & I),claims@post-co.com,claims@post-co.com,2022,2022,string,string,USD,USD,263,Test3Policy Risk,Test3Policy Risk,ITALY,ITALY,YA,YA,YACHT CHARTER 13+ PAX,YACHT CHARTER 13+ PAX,0,0,null,null,N/K,N/K,null,null,N/K,N/K,N/K,N/K,N/K,N/K,N/K,N/K,f56,f56,2500,2500,2012,2012,TRIESTE,TRIESTE,2,2,N/K,N/K,UTOM,UTOM,Test Case Passed
247,247,1,1,123654,123654,DRAFT,DRAFT,string,string,true,true,true,true,130179,130179,130179,130179,1044648,1044648,112673,112673,0,0,1,1,2,2,682637,682637,682637,682637,1044648,1044648,73328,73328,N/K,N/K,Test3Member Variation1,Test3Member Variation1,N/K,N/K,N/K,N/K,N/K,N/K,N/K,N/K,104,104,POST & CO (P & I),POST & CO (P & I),claims@post-co.com,claims@post-co.com,2022,2022,string,string,USD,USD,263,Test3Policy Risk,Test3Policy Risk,ITALY,ITALY,YA,YA,YACHT CHARTER 13+ PAX,YACHT CHARTER 13+ PAX,0,0,null,null,N/K,N/K,null,null,N/K,N/K,N/K,N/K,N/K,N/K,N/K,N/K,f56,f56,2500,2500,2012,2012,TRIESTE,TRIESTE,2,2,N/K,N/K,UTOM,UTOM,Test Case Passed
248,248,1,1,123654,123654,DRAFT,DRAFT,string,string,true,true,true,true,130179,130179,130179,130179,1044648,1044648,112673,112673,0,0,1,1,2,2,682637,682637,682637,682637,1044648,1044648,73328,73328,N/K,N/K,Test3Member Variation1,Test3Member Variation1,N/K,N/K,N/K,N/K,N/K,N/K,N/K,N/K,104,104,POST & CO (P & I),POST & CO (P & I),claims@post-co.com,claims@post-co.com,2022,2022,string,string,USD,USD,263,Test3Policy Risk,Test3Policy Risk,ITALY,ITALY,YA,YA,YACHT CHARTER 13+ PAX,YACHT CHARTER 13+ PAX,0,0,null,null,N/K,N/K,null,null,N/K,N/K,N/K,N/K,N/K,N/K,N/K,N/K,f56,f56,2500,2500,2012,2012,TRIESTE,TRIESTE,2,2,N/K,N/K,UTOM,UTOM,Test Case Passed
249,249,1,1,123654,123654,DRAFT,DRAFT,string,string,true,true,true,true,130179,130179,130179,130179,1044648,1044648,112673,112673,0,0,1,1,2,2,682637,682637,682637,682637,1044648,1044648,73328,73328,N/K,N/K,Test3Member Variation1,Test3Member Variation1,N/K,N/K,N/K,N/K,N/K,N/K,N/K,N/K,104,104,POST & CO (P & I),POST & CO (P & I),claims@post-co.com,claims@post-co.com,2022,2022,string,string,USD,USD,263,Test3Policy Risk,Test3Policy Risk,ITALY,ITALY,YA,YA,YACHT CHARTER 13+ PAX,YACHT CHARTER 13+ PAX,0,0,null,null,N/K,N/K,null,null,N/K,N/K,N/K,N/K,N/K,N/K,N/K,N/K,f56,f56,2500,2500,2012,2012,TRIESTE,TRIESTE,5,5,N/K,N/K,UTOM,UTOM,Test Case Passed
250,250,2,2,123654,123654,DRAFT,DRAFT,string,string,true,true,true,true,130179,130179,130179,130179,1044648,1044648,112673,112673,0,0,1,1,2,2,682637,682637,682637,682637,1044648,1044648,73328,73328,N/K,N/K,Test3Member Variation1,Test3Member Variation1,N/K,N/K,N/K,N/K,N/K,N/K,N/K,N/K,104,104,POST & CO (P & I),POST & CO (P & I),claims@post-co.com,claims@post-co.com,2022,2022,string,string,USD,USD,263,Test3Policy Risk,Test3Policy Risk,ITALY,ITALY,YA,YA,YACHT CHARTER 13+ PAX,YACHT CHARTER 13+ PAX,0,0,null,null,N/K,N/K,null,null,N/K,N/K,N/K,N/K,N/K,N/K,N/K,N/K,f56,f56,2500,2500,2012,2012,TRIESTE,TRIESTE,5,5,N/K,N/K,UTOM,UTOM,Test Case Passed
251,251,3,3,123654,123654,DRAFT,DRAFT,string,string,true,true,true,true,130179,130179,130179,130179,1044648,1044648,112673,112673,0,0,1,1,1,1,682637,682637,682637,682637,1044648,1044648,73328,73328,N/K,N/K,Test3Member Variation1,Test3Member Variation1,N/K,N/K,N/K,N/K,N/K,N/K,N/K,N/K,104,104,POST & CO (P & I),POST & CO (P & I),claims@post-co.com,claims@post-co.com,2022,2022,string,string,USD,USD,263,Test3Policy Risk,Test3Policy Risk,ITALY,ITALY,YA,YA,YACHT CHARTER 13+ PAX,YACHT CHARTER 13+ PAX,0,0,null,null,N/K,N/K,null,null,N/K,N/K,N/K,N/K,N/K,N/K,N/K,N/K,f56,f56,2500,2500,2012,2012,TRIESTE,TRIESTE,4,4,N/K,N/K,UTOM,UTOM,Test Case Passed
252,252,4,4,123654,123654,DRAFT,DRAFT,string,string,true,true,true,true,130179,130179,130179,130179,1044648,1044648,112673,112673,0,0,1,1,1,1,682637,682637,682637,682637,1044648,1044648,73328,73328,N/K,N/K,Test3Member Variation1,Test3Member Variation1,N/K,N/K,N/K,N/K,N/K,N/K,N/K,N/K,104,104,POST & CO (P & I),POST & CO (P & I),claims@post-co.com,claims@post-co.com,2022,2022,string,string,USD,USD,263,Test3Policy Risk,Test3Policy Risk,ITALY,ITALY,YA,YA,YACHT CHARTER 13+ PAX,YACHT CHARTER 13+ PAX,0,0,null,null,N/K,N/K,null,null,N/K,N/K,N/K,N/K,N/K,N/K,N/K,N/K,f56,f56,2500,2500,2012,2012,TRIESTE,TRIESTE,3,3,N/K,N/K,UTOM,UTOM,Test Case Passed
253,253,6,6,123654,123654,DRAFT,DRAFT,string,string,true,true,true,true,130179,130179,130179,130179,1044648,1044648,112673,112673,0,0,1,1,1,1,682637,682637,682637,682637,1044648,1044648,73328,73328,N/K,N/K,Test3Member Variation1,Test3Member Variation1,N/K,N/K,N/K,N/K,N/K,N/K,N/K,N/K,104,104,POST & CO (P & I),POST & CO (P & I),claims@post-co.com,claims@post-co.com,2022,2022,string,string,USD,USD,263,Test3Policy Risk,Test3Policy Risk,ITALY,ITALY,YA,YA,YACHT CHARTER 13+ PAX,YACHT CHARTER 13+ PAX,0,0,null,null,N/K,N/K,null,null,N/K,N/K,N/K,N/K,N/K,N/K,N/K,N/K,f56,f56,2500,2500,2012,2012,TRIESTE,TRIESTE,2,2,N/K,N/K,UTOM,UTOM,Test Case Passed
254,254,7,7,123654,123654,DRAFT,DRAFT,string,string,true,true,true,true,130179,130179,130179,130179,1044648,1044648,112673,112673,0,0,1,1,2,2,682637,682637,682637,682637,1044648,1044648,73328,73328,N/K,N/K,Test3Member Variation1,Test3Member Variation1,N/K,N/K,N/K,N/K,N/K,N/K,N/K,N/K,104,104,POST & CO (P & I),POST & CO (P & I),claims@post-co.com,claims@post-co.com,2022,2022,string,string,USD,USD,263,Test3Policy Risk,Test3Policy Risk,ITALY,ITALY,YA,YA,YACHT CHARTER 13+ PAX,YACHT CHARTER 13+ PAX,0,0,null,null,N/K,N/K,null,null,N/K,N/K,N/K,N/K,N/K,N/K,N/K,N/K,f56,f56,2500,2500,2012,2012,TRIESTE,TRIESTE,2,2,N/K,N/K,UTOM,UTOM,Test Case Passed
255,255,8,8,123654,123654,DRAFT,DRAFT,string,string,true,true,true,true,130179,130179,130179,130179,1044648,1044648,112673,112673,0,0,1,1,1,1,682637,682637,682637,682637,1044648,1044648,73328,73328,N/K,N/K,Test3Member Variation1,Test3Member Variation1,N/K,N/K,N/K,N/K,N/K,N/K,N/K,N/K,104,104,POST & CO (P & I),POST & CO (P & I),claims@post-co.com,claims@post-co.com,2022,2022,string,string,USD,USD,263,Test3Policy Risk,Test3Policy Risk,ITALY,ITALY,YA,YA,YACHT CHARTER 13+ PAX,YACHT CHARTER 13+ PAX,0,0,null,null,N/K,N/K,null,null,N/K,N/K,N/K,N/K,N/K,N/K,N/K,N/K,f56,f56,2500,2500,2012,2012,TRIESTE,TRIESTE,3,3,N/K,N/K,UTOM,UTOM,Test Case Passed
256,256,9,9,123654,123654,DRAFT,DRAFT,string,string,true,true,true,true,130179,130179,130179,130179,1044648,1044648,112673,112673,0,0,1,1,1,1,682637,682637,682637,682637,1044648,1044648,73328,73328,N/K,N/K,Test3Member Variation1,Test3Member Variation1,N/K,N/K,N/K,N/K,N/K,N/K,N/K,N/K,104,104,POST & CO (P & I),POST & CO (P & I),claims@post-co.com,claims@post-co.com,2022,2022,string,string,USD,USD,263,Test3Policy Risk,Test3Policy Risk,ITALY,ITALY,YA,YA,YACHT CHARTER 13+ PAX,YACHT CHARTER 13+ PAX,0,0,null,null,N/K,N/K,null,null,N/K,N/K,N/K,N/K,N/K,N/K,N/K,N/K,f56,f56,2500,2500,2012,2012,TRIESTE,TRIESTE,2,2,N/K,N/K,UTOM,UTOM,Test Case Passed
257,257,10,10,123654,123654,DRAFT,DRAFT,string,string,true,true,true,true,130179,130179,130179,130179,1044648,1044648,112673,112673,0,0,1,1,2,2,682637,682637,682637,682637,1044648,1044648,73328,73328,N/K,N/K,Test3Member Variation1,Test3Member Variation1,N/K,N/K,N/K,N/K,N/K,N/K,N/K,N/K,104,104,POST & CO (P & I),POST & CO (P & I),claims@post-co.com,claims@post-co.com,2022,2022,string,string,USD,USD,263,Test3Policy Risk,Test3Policy Risk,ITALY,ITALY,YA,YA,YACHT CHARTER 13+ PAX,YACHT CHARTER 13+ PAX,0,0,null,null,N/K,N/K,null,null,N/K,N/K,N/K,N/K,N/K,N/K,N/K,N/K,f56,f56,2500,2500,2012,2012,TRIESTE,TRIESTE,1,1,N/K,N/K,UTOM,UTOM,Test Case Passed
258,258,11,11,123654,123654,DRAFT,DRAFT,string,string,true,true,true,true,130179,130179,130179,130179,1044648,1044648,112673,112673,0,0,1,1,1,1,682637,682637,682637,682637,1044648,1044648,73328,73328,N/K,N/K,Test3Member Variation1,Test3Member Variation1,N/K,N/K,N/K,N/K,N/K,N/K,N/K,N/K,104,104,POST & CO (P & I),POST & CO (P & I),claims@post-co.com,claims@post-co.com,2022,2022,string,string,USD,USD,263,Test3Policy Risk,Test3Policy Risk,ITALY,ITALY,YA,YA,YACHT CHARTER 13+ PAX,YACHT CHARTER 13+ PAX,0,0,null,null,N/K,N/K,null,null,N/K,N/K,N/K,N/K,N/K,N/K,N/K,N/K,f56,f56,2500,2500,2012,2012,TRIESTE,TRIESTE,1,1,N/K,N/K,UTOM,UTOM,Test Case Passed
259,259,12,12,123654,123654,DRAFT,DRAFT,string,string,true,true,true,true,130179,130179,130179,130179,1044648,1044648,112673,112673,0,0,1,1,1,1,682637,682637,682637,682637,1044648,1044648,73328,73328,N/K,N/K,Test3Member Variation1,Test3Member Variation1,N/K,N/K,N/K,N/K,N/K,N/K,N/K,N/K,104,104,POST & CO (P & I),POST & CO (P & I),claims@post-co.com,claims@post-co.com,2022,2022,string,string,USD,USD,263,Test3Policy Risk,Test3Policy Risk,ITALY,ITALY,YA,YA,YACHT CHARTER 13+ PAX,YACHT CHARTER 13+ PAX,0,0,null,null,N/K,N/K,null,null,N/K,N/K,N/K,N/K,N/K,N/K,N/K,N/K,f56,f56,2500,2500,2012,2012,TRIESTE,TRIESTE,7,7,N/K,N/K,UTOM,UTOM,Test Case Passed
260,260,13,13,123654,123654,DRAFT,DRAFT,string,string,true,true,true,true,130179,130179,130179,130179,1044648,1044648,112673,112673,0,0,1,1,1,1,682637,682637,682637,682637,1044648,1044648,73328,73328,N/K,N/K,Test3Member Variation1,Test3Member Variation1,N/K,N/K,N/K,N/K,N/K,N/K,N/K,N/K,104,104,POST & CO (P & I),POST & CO (P & I),claims@post-co.com,claims@post-co.com,2022,2022,string,string,USD,USD,263,Test3Policy Risk,Test3Policy Risk,ITALY,ITALY,YA,YA,YACHT CHARTER 13+ PAX,YACHT CHARTER 13+ PAX,0,0,null,null,N/K,N/K,null,null,N/K,N/K,N/K,N/K,N/K,N/K,N/K,N/K,f56,f56,2500,2500,2012,2012,TRIESTE,TRIESTE,2,2,N/K,N/K,UTOM,UTOM,Test Case Passed
261,261,14,14,123654,123654,DRAFT,DRAFT,string,string,true,true,true,true,130179,130179,130179,130179,1044648,1044648,112673,112673,0,0,1,1,2,2,682637,682637,682637,682637,1044648,1044648,73328,73328,N/K,N/K,Test3Member Variation1,Test3Member Variation1,N/K,N/K,N/K,N/K,N/K,N/K,N/K,N/K,104,104,POST & CO (P & I),POST & CO (P & I),claims@post-co.com,claims@post-co.com,2022,2022,string,string,USD,USD,263,Test3Policy Risk,Test3Policy Risk,ITALY,ITALY,YA,YA,YACHT CHARTER 13+ PAX,YACHT CHARTER 13+ PAX,0,0,null,null,N/K,N/K,null,null,N/K,N/K,N/K,N/K,N/K,N/K,N/K,N/K,f56,f56,2500,2500,2012,2012,TRIESTE,TRIESTE,2,2,N/K,N/K,UTOM,UTOM,Test Case Passed
262,262,15,15,123654,123654,DRAFT,DRAFT,string,string,true,true,true,true,130179,130179,130179,130179,1044648,1044648,112673,112673,0,0,1,1,1,1,682637,682637,682637,682637,1044648,1044648,73328,73328,N/K,N/K,Test3Member Variation1,Test3Member Variation1,N/K,N/K,N/K,N/K,N/K,N/K,N/K,N/K,104,104,POST & CO (P & I),POST & CO (P & I),claims@post-co.com,claims@post-co.com,2022,2022,string,string,USD,USD,263,Test3Policy Risk,Test3Policy Risk,ITALY,ITALY,YA,YA,YACHT CHARTER 13+ PAX,YACHT CHARTER 13+ PAX,0,0,null,null,N/K,N/K,null,null,N/K,N/K,N/K,N/K,N/K,N/K,N/K,N/K,f56,f56,2500,2500,2012,2012,TRIESTE,TRIESTE,4,4,N/K,N/K,UTOM,UTOM,Test Case Passed
263,263,16,16,123654,123654,DRAFT,DRAFT,string,string,true,true,true,true,130179,130179,130179,130179,1044648,1044648,112673,112673,0,0,1,1,2,2,682637,682637,682637,682637,1044648,1044648,73328,73328,N/K,N/K,Test3Member Variation1,Test3Member Variation1,N/K,N/K,N/K,N/K,N/K,N/K,N/K,N/K,104,104,POST & CO (P & I),POST & CO (P & I),claims@post-co.com,claims@post-co.com,2022,2022,string,string,USD,USD,263,Test3Policy Risk,Test3Policy Risk,ITALY,ITALY,YA,YA,YACHT CHARTER 13+ PAX,YACHT CHARTER 13+ PAX,0,0,null,null,N/K,N/K,null,null,N/K,N/K,N/K,N/K,N/K,N/K,N/K,N/K,f56,f56,2500,2500,2012,2012,TRIESTE,TRIESTE,1,1,N/K,N/K,UTOM,UTOM,Test Case Passed
264,264,18,18,123654,123654,DRAFT,DRAFT,string,string,true,true,true,true,130179,130179,130179,130179,1044648,1044648,112673,112673,0,0,1,1,1,1,682637,682637,682637,682637,1044648,1044648,73328,73328,N/K,N/K,Test3Member Variation1,Test3Member Variation1,N/K,N/K,N/K,N/K,N/K,N/K,N/K,N/K,104,104,POST & CO (P & I),POST & CO (P & I),claims@post-co.com,claims@post-co.com,2022,2022,string,string,USD,USD,263,Test3Policy Risk,Test3Policy Risk,ITALY,ITALY,YA,YA,YACHT CHARTER 13+ PAX,YACHT CHARTER 13+ PAX,0,0,null,null,N/K,N/K,null,null,N/K,N/K,N/K,N/K,N/K,N/K,N/K,N/K,f56,f56,2500,2500,2012,2012,TRIESTE,TRIESTE,5,5,N/K,N/K,UTOM,UTOM,Test Case Passed
265,265,19,19,123654,123654,DRAFT,DRAFT,string,string,true,true,true,true,130179,130179,130179,130179,1044648,1044648,112673,112673,0,0,1,1,1,1,682637,682637,682637,682637,1044648,1044648,73328,73328,N/K,N/K,Test3Member Variation1,Test3Member Variation1,N/K,N/K,N/K,N/K,N/K,N/K,N/K,N/K,104,104,POST & CO (P & I),POST & CO (P & I),claims@post-co.com,claims@post-co.com,2022,2022,string,string,USD,USD,263,Test3Policy Risk,Test3Policy Risk,ITALY,ITALY,YA,YA,YACHT CHARTER 13+ PAX,YACHT CHARTER 13+ PAX,0,0,null,null,N/K,N/K,null,null,N/K,N/K,N/K,N/K,N/K,N/K,N/K,N/K,f56,f56,2500,2500,2012,2012,TRIESTE,TRIESTE,5,5,N/K,N/K,UTOM,UTOM,Test Case Passed
266,266,20,20,123654,123654,DRAFT,DRAFT,string,string,true,true,true,true,130179,130179,130179,130179,1044648,1044648,112673,112673,0,0,1,1,1,1,682637,682637,682637,682637,1044648,1044648,73328,73328,N/K,N/K,Test3Member Variation1,Test3Member Variation1,N/K,N/K,N/K,N/K,N/K,N/K,N/K,N/K,104,104,POST & CO (P & I),POST & CO (P & I),claims@post-co.com,claims@post-co.com,2022,2022,string,string,USD,USD,263,Test3Policy Risk,Test3Policy Risk,ITALY,ITALY,YA,YA,YACHT CHARTER 13+ PAX,YACHT CHARTER 13+ PAX,0,0,null,null,N/K,N/K,null,null,N/K,N/K,N/K,N/K,N/K,N/K,N/K,N/K,f56,f56,2500,2500,2012,2012,TRIESTE,TRIESTE,4,4,N/K,N/K,UTOM,UTOM,Test Case Passed
267,267,21,21,123654,123654,DRAFT,DRAFT,string,string,true,true,true,true,130179,130179,130179,130179,1044648,1044648,112673,112673,0,0,1,1,2,2,682637,682637,682637,682637,1044648,1044648,73328,73328,N/K,N/K,Test3Member Variation1,Test3Member Variation1,N/K,N/K,N/K,N/K,N/K,N/K,N/K,N/K,104,104,POST & CO (P & I),POST & CO (P & I),claims@post-co.com,claims@post-co.com,2022,2022,string,string,USD,USD,263,Test3Policy Risk,Test3Policy Risk,ITALY,ITALY,YA,YA,YACHT CHARTER 13+ PAX,YACHT CHARTER 13+ PAX,0,0,null,null,N/K,N/K,null,null,N/K,N/K,N/K,N/K,N/K,N/K,N/K,N/K,f56,f56,2500,2500,2012,2012,TRIESTE,TRIESTE,5,5,N/K,N/K,UTOM,UTOM,Test Case Passed
268,268,22,22,123654,123654,DRAFT,DRAFT,string,string,true,true,true,true,130179,130179,130179,130179,1044648,1044648,112673,112673,0,0,1,1,1,1,682637,682637,682637,682637,1044648,1044648,73328,73328,N/K,N/K,Test3Member Variation1,Test3Member Variation1,N/K,N/K,N/K,N/K,N/K,N/K,N/K,N/K,104,104,POST & CO (P & I),POST & CO (P & I),claims@post-co.com,claims@post-co.com,2022,2022,string,string,USD,USD,263,Test3Policy Risk,Test3Policy Risk,ITALY,ITALY,YA,YA,YACHT CHARTER 13+ PAX,YACHT CHARTER 13+ PAX,0,0,null,null,N/K,N/K,null,null,N/K,N/K,N/K,N/K,N/K,N/K,N/K,N/K,f56,f56,2500,2500,2012,2012,TRIESTE,TRIESTE,1,1,N/K,N/K,UTOM,UTOM,Test Case Passed
269,269,23,23,123654,123654,DRAFT,DRAFT,string,string,true,true,true,true,130179,130179,130179,130179,1044648,1044648,112673,112673,0,0,1,1,1,1,682637,682637,682637,682637,1044648,1044648,73328,73328,N/K,N/K,Test3Member Variation1,Test3Member Variation1,N/K,N/K,N/K,N/K,N/K,N/K,N/K,N/K,104,104,POST & CO (P & I),POST & CO (P & I),claims@post-co.com,claims@post-co.com,2022,2022,string,string,USD,USD,263,Test3Policy Risk,Test3Policy Risk,ITALY,ITALY,YA,YA,YACHT CHARTER 13+ PAX,YACHT CHARTER 13+ PAX,0,0,null,null,N/K,N/K,null,null,N/K,N/K,N/K,N/K,N/K,N/K,N/K,N/K,f56,f56,2500,2500,2012,2012,TRIESTE,TRIESTE,7,7,N/K,N/K,UTOM,UTOM,Test Case Passed
270,270,24,24,123654,123654,DRAFT,DRAFT,string,string,true,true,true,true,130179,130179,130179,130179,1044648,1044648,112673,112673,0,0,1,1,1,1,682637,682637,682637,682637,1044648,1044648,73328,73328,N/K,N/K,Test3Member Variation1,Test3Member Variation1,N/K,N/K,N/K,N/K,N/K,N/K,N/K,N/K,104,104,POST & CO (P & I),POST & CO (P & I),claims@post-co.com,claims@post-co.com,2022,2022,string,string,USD,USD,263,Test3Policy Risk,Test3Policy Risk,ITALY,ITALY,YA,YA,YACHT CHARTER 13+ PAX,YACHT CHARTER 13+ PAX,0,0,null,null,N/K,N/K,null,null,N/K,N/K,N/K,N/K,N/K,N/K,N/K,N/K,f56,f56,2500,2500,2012,2012,TRIESTE,TRIESTE,3,3,N/K,N/K,UTOM,UTOM,Test Case Passed
271,271,25,25,123654,123654,DRAFT,DRAFT,string,string,true,true,true,true,130179,130179,130179,130179,1044648,1044648,112673,112673,0,0,1,1,1,1,682637,682637,682637,682637,1044648,1044648,73328,73328,N/K,N/K,Test3Member Variation1,Test3Member Variation1,N/K,N/K,N/K,N/K,N/K,N/K,N/K,N/K,104,104,POST & CO (P & I),POST & CO (P & I),claims@post-co.com,claims@post-co.com,2022,2022,string,string,USD,USD,263,Test3Policy Risk,Test3Policy Risk,ITALY,ITALY,YA,YA,YACHT CHARTER 13+ PAX,YACHT CHARTER 13+ PAX,0,0,null,null,N/K,N/K,null,null,N/K,N/K,N/K,N/K,N/K,N/K,N/K,N/K,f56,f56,2500,2500,2012,2012,TRIESTE,TRIESTE,6,6,N/K,N/K,UTOM,UTOM,Test Case Passed
272,272,26,26,123654,123654,DRAFT,DRAFT,string,string,true,true,true,true,130179,130179,130179,130179,1044648,1044648,112673,112673,0,0,1,1,1,1,682637,682637,682637,682637,1044648,1044648,73328,73328,N/K,N/K,Test3Member Variation1,Test3Member Variation1,N/K,N/K,N/K,N/K,N/K,N/K,N/K,N/K,104,104,POST & CO (P & I),POST & CO (P & I),claims@post-co.com,claims@post-co.com,2022,2022,string,string,USD,USD,263,Test3Policy Risk,Test3Policy Risk,ITALY,ITALY,YA,YA,YACHT CHARTER 13+ PAX,YACHT CHARTER 13+ PAX,0,0,null,null,N/K,N/K,null,null,N/K,N/K,N/K,N/K,N/K,N/K,N/K,N/K,f56,f56,2500,2500,2012,2012,TRIESTE,TRIESTE,2,2,N/K,N/K,UTOM,UTOM,Test Case Passed
273,273,1,1,123654,123654,DRAFT,DRAFT,string,string,true,true,true,true,130179,130179,130179,130179,1044648,1044648,112673,112673,0,0,1,1,2,2,682637,682637,682637,682637,1044648,1044648,73328,73328,N/K,N/K,Test3Member Variation1,Test3Member Variation1,N/K,N/K,N/K,N/K,N/K,N/K,N/K,N/K,104,104,POST & CO (P & I),POST & CO (P & I),claims@post-co.com,claims@post-co.com,2022,2022,string,string,USD,USD,263,Test3Policy Risk,Test3Policy Risk,ITALY,ITALY,YA,YA,YACHT CHARTER 13+ PAX,YACHT CHARTER 13+ PAX,0,0,null,null,N/K,N/K,null,null,N/K,N/K,N/K,N/K,N/K,N/K,N/K,N/K,f56,f56,2500,2500,2012,2012,TRIESTE,TRIESTE,1,1,N/K,N/K,UTOM,UTOM,Test Case Passed
326,326,1,1,123654,123654,DRAFT,DRAFT,string,string,true,true,true,true,130179,130179,130179,130179,1044648,1044648,112673,112673,0,0,1,1,2,2,682637,682637,682637,682637,1044648,1044648,73328,73328,N/K,N/K,Test3Member Variation1,Test3Member Variation1,N/K,N/K,N/K,N/K,N/K,N/K,N/K,N/K,104,104,POST & CO (P & I),POST & CO (P & I),claims@post-co.com,claims@post-co.com,2022,2022,string,string,USD,USD,263,Test3Policy Risk,Test3Policy Risk,ITALY,ITALY,YA,YA,YACHT CHARTER 13+ PAX,YACHT CHARTER 13+ PAX,0,0,null,null,N/K,N/K,null,null,N/K,N/K,N/K,N/K,N/K,N/K,N/K,N/K,f56,f56,2500,2500,2012,2012,TRIESTE,TRIESTE,1,1,N/K,N/K,UTOM,UTOM,Test Case Passed
327,327,1,1,123654,123654,DRAFT,DRAFT,string,string,true,true,true,true,130179,130179,130179,130179,1044648,1044648,112673,112673,0,0,1,1,2,2,682637,682637,682637,682637,1044648,1044648,73328,73328,N/K,N/K,Test3Member Variation1,Test3Member Variation1,N/K,N/K,N/K,N/K,N/K,N/K,N/K,N/K,104,104,POST & CO (P & I),POST & CO (P & I),claims@post-co.com,claims@post-co.com,2022,2022,string,string,USD,USD,263,Test3Policy Risk,Test3Policy Risk,ITALY,ITALY,YA,YA,YACHT CHARTER 13+ PAX,YACHT CHARTER 13+ PAX,0,0,null,null,N/K,N/K,null,null,N/K,N/K,N/K,N/K,N/K,N/K,N/K,N/K,f56,f56,2500,2500,2012,2012,TRIESTE,TRIESTE,1,1,N/K,N/K,UTOM,UTOM,Test Case Passed
328,328,1,1,123654,123654,DRAFT,DRAFT,string,string,true,true,true,true,130179,130179,130179,130179,1044648,1044648,112673,112673,0,0,1,1,2,2,682637,682637,682637,682637,1044648,1044648,73328,73328,N/K,N/K,Test3Member Variation1,Test3Member Variation1,N/K,N/K,N/K,N/K,N/K,N/K,N/K,N/K,104,104,POST & CO (P & I),POST & CO (P & I),claims@post-co.com,claims@post-co.com,2022,2022,string,string,USD,USD,263,Test3Policy Risk,Test3Policy Risk,ITALY,ITALY,YA,YA,YACHT CHARTER 13+ PAX,YACHT CHARTER 13+ PAX,0,0,null,null,N/K,N/K,null,null,N/K,N/K,N/K,N/K,N/K,N/K,N/K,N/K,f56,f56,2500,2500,2012,2012,TRIESTE,TRIESTE,1,1,N/K,N/K,UTOM,UTOM,Test Case Passed
356,356,1,1,123654,123654,DRAFT,DRAFT,string,string,true,true,true,true,130179,130179,130179,130179,1044648,1044648,112673,112673,0,0,1,1,2,2,682637,682637,682637,682637,1044648,1044648,73328,73328,N/K,N/K,Test3Member Variation1,Test3Member Variation1,N/K,N/K,N/K,N/K,N/K,N/K,N/K,N/K,104,104,POST & CO (P & I),POST & CO (P & I),claims@post-co.com,claims@post-co.com,2022,2022,string,string,USD,USD,263,Test3Policy Risk,Test3Policy Risk,ITALY,ITALY,YA,YA,YACHT CHARTER 13+ PAX,YACHT CHARTER 13+ PAX,0,0,3453466,3453466,N/K,N/K,N/K,N/K,N/K,N/K,N/K,N/K,N/K,N/K,N/K,N/K,f56,f56,2500,2500,2012,2012,TRIESTE,TRIESTE,1,1,N/K,N/K,PIOnline,PIOnline,Test Case Passed
382,382,11,11,123654,123654,DRAFT,DRAFT,string,string,true,true,true,true,130179,130179,130179,130179,1044648,1044648,112673,112673,0,0,1,1,2,2,682637,682637,682637,682637,1044648,1044648,73328,73328,N/K,N/K,Test3Member Variation1,Test3Member Variation1,N/K,N/K,N/K,N/K,N/K,N/K,N/K,N/K,104,104,POST & CO (P & I),POST & CO (P & I),claims@post-co.com,claims@post-co.com,2022,2022,string,string,USD,USD,263,Test3Policy Risk,Test3Policy Risk,ITALY,ITALY,YA,YA,YACHT CHARTER 13+ PAX,YACHT CHARTER 13+ PAX,0,0,3453466,3453466,N/K,N/K,N/K,N/K,N/K,N/K,N/K,N/K,N/K,N/K,N/K,N/K,f56,f56,2500,2500,2012,2012,TRIESTE,TRIESTE,1,1,N/K,N/K,PIOnline,PIOnline,Test Case Passed
384,384,2,2,123654,123654,DRAFT,DRAFT,string,string,true,true,true,true,130179,130179,130179,130179,1044648,1044648,112673,112673,0,0,1,1,2,2,682637,682637,682637,682637,1044648,1044648,73328,73328,N/K,N/K,Test3Member Variation1,Test3Member Variation1,N/K,N/K,N/K,N/K,N/K,N/K,N/K,N/K,104,104,POST & CO (P & I),POST & CO (P & I),claims@post-co.com,claims@post-co.com,2022,2022,string,string,USD,USD,263,Test3Policy Risk,Test3Policy Risk,ITALY,ITALY,YA,YA,YACHT CHARTER 13+ PAX,YACHT CHARTER 13+ PAX,0,0,3453466,3453466,N/K,N/K,N/K,N/K,N/K,N/K,N/K,N/K,N/K,N/K,N/K,N/K,f56,f56,2500,2500,2012,2012,TRIESTE,TRIESTE,1,1,N/K,N/K,PIOnline,PIOnline,Test Case Passed
391,391,7,7,123654,123654,DRAFT,DRAFT,string,string,true,true,true,true,130179,130179,130179,130179,1044648,1044648,112673,112673,0,0,1,1,2,2,682637,682637,682637,682637,1044648,1044648,73328,73328,N/K,N/K,Test3Member Variation1,Test3Member Variation1,N/K,N/K,N/K,N/K,N/K,N/K,N/K,N/K,104,104,POST & CO (P & I),POST & CO (P & I),claims@post-co.com,claims@post-co.com,2022,2022,string,string,USD,USD,263,Test3Policy Risk,Test3Policy Risk,ITALY,ITALY,YA,YA,YACHT CHARTER 13+ PAX,YACHT CHARTER 13+ PAX,0,0,3453466,3453466,N/K,N/K,N/K,N/K,N/K,N/K,N/K,N/K,N/K,N/K,N/K,N/K,f56,f56,2500,2500,2012,2012,TRIESTE,TRIESTE,4,4,N/K,N/K,PIOnline,PIOnline,Test Case Passed
392,392,11,11,123654,123654,DRAFT,DRAFT,string,string,true,true,true,true,130179,130179,130179,130179,1044648,1044648,112673,112673,0,0,1,1,2,2,682637,682637,682637,682637,1044648,1044648,73328,73328,N/K,N/K,Test3Member Variation1,Test3Member Variation1,N/K,N/K,N/K,N/K,N/K,N/K,N/K,N/K,104,104,POST & CO (P & I),POST & CO (P & I),claims@post-co.com,claims@post-co.com,2022,2022,string,string,USD,USD,263,Test3Policy Risk,Test3Policy Risk,ITALY,ITALY,YA,YA,YACHT CHARTER 13+ PAX,YACHT CHARTER 13+ PAX,0,0,3453466,3453466,N/K,N/K,N/K,N/K,N/K,N/K,N/K,N/K,N/K,N/K,N/K,N/K,f56,f56,2500,2500,2012,2012,TRIESTE,TRIESTE,1,1,N/K,N/K,PIOnline,PIOnline,Test Case Passed
393,393,11,11,123654,123654,DRAFT,DRAFT,string,string,true,true,true,true,130179,130179,130179,130179,1044648,1044648,112673,112673,0,0,1,1,2,2,682637,682637,682637,682637,1044648,1044648,73328,73328,N/K,N/K,Test3Member Variation1,Test3Member Variation1,N/K,N/K,N/K,N/K,N/K,N/K,N/K,N/K,104,104,POST & CO (P & I),POST & CO (P & I),claims@post-co.com,claims@post-co.com,2022,2022,string,string,USD,USD,263,Test3Policy Risk,Test3Policy Risk,ITALY,ITALY,YA,YA,YACHT CHARTER 13+ PAX,YACHT CHARTER 13+ PAX,0,0,3453466,3453466,N/K,N/K,N/K,N/K,N/K,N/K,N/K,N/K,N/K,N/K,N/K,N/K,f56,f56,2500,2500,2012,2012,TRIESTE,TRIESTE,1,1,N/K,N/K,PIOnline,PIOnline,Test Case Passed
394,394,1,1,123654,123654,DRAFT,DRAFT,string,string,true,true,true,true,130179,130179,130179,130179,1044648,1044648,112673,112673,0,0,1,1,2,2,682637,682637,682637,682637,1044648,1044648,73328,73328,N/K,N/K,Test3Member Variation1,Test3Member Variation1,N/K,N/K,N/K,N/K,N/K,N/K,N/K,N/K,104,104,POST & CO (P & I),POST & CO (P & I),claims@post-co.com,claims@post-co.com,2022,2022,string,string,USD,USD,263,Test3Policy Risk,Test3Policy Risk,ITALY,ITALY,YA,YA,YACHT CHARTER 13+ PAX,YACHT CHARTER 13+ PAX,0,0,3453466,3453466,N/K,N/K,N/K,N/K,N/K,N/K,N/K,N/K,N/K,N/K,N/K,N/K,f56,f56,2500,2500,2012,2012,TRIESTE,TRIESTE,5,5,N/K,N/K,PIOnline,PIOnline,Test Case Passed
395,395,2,2,123654,123654,DRAFT,DRAFT,string,string,true,true,true,true,130179,130179,130179,130179,1044648,1044648,112673,112673,0,0,1,1,2,2,682637,682637,682637,682637,1044648,1044648,73328,73328,N/K,N/K,Test3Member Variation1,Test3Member Variation1,N/K,N/K,N/K,N/K,N/K,N/K,N/K,N/K,104,104,POST & CO (P & I),POST & CO (P & I),claims@post-co.com,claims@post-co.com,2022,2022,string,string,USD,USD,263,Test3Policy Risk,Test3Policy Risk,ITALY,ITALY,YA,YA,YACHT CHARTER 13+ PAX,YACHT CHARTER 13+ PAX,0,0,3453466,3453466,N/K,N/K,N/K,N/K,N/K,N/K,N/K,N/K,N/K,N/K,N/K,N/K,f56,f56,2500,2500,2012,2012,TRIESTE,TRIESTE,4,4,N/K,N/K,PIOnline,PIOnline,Test Case Passed
396,396,3,3,123654,123654,DRAFT,DRAFT,string,string,true,true,true,true,130179,130179,130179,130179,1044648,1044648,112673,112673,0,0,1,1,2,2,682637,682637,682637,682637,1044648,1044648,73328,73328,N/K,N/K,Test3Member Variation1,Test3Member Variation1,N/K,N/K,N/K,N/K,N/K,N/K,N/K,N/K,104,104,POST & CO (P & I),POST & CO (P & I),claims@post-co.com,claims@post-co.com,2022,2022,string,string,USD,USD,263,Test3Policy Risk,Test3Policy Risk,ITALY,ITALY,YA,YA,YACHT CHARTER 13+ PAX,YACHT CHARTER 13+ PAX,0,0,3453466,3453466,N/K,N/K,N/K,N/K,N/K,N/K,N/K,N/K,N/K,N/K,N/K,N/K,f56,f56,2500,2500,2012,2012,TRIESTE,TRIESTE,5,5,N/K,N/K,PIOnline,PIOnline,Test Case Passed
397,397,4,4,123654,123654,DRAFT,DRAFT,string,string,true,true,true,true,130179,130179,130179,130179,1044648,1044648,112673,112673,0,0,1,1,2,2,682637,682637,682637,682637,1044648,1044648,73328,73328,N/K,N/K,Test3Member Variation1,Test3Member Variation1,N/K,N/K,N/K,N/K,N/K,N/K,N/K,N/K,104,104,POST & CO (P & I),POST & CO (P & I),claims@post-co.com,claims@post-co.com,2022,2022,string,string,USD,USD,263,Test3Policy Risk,Test3Policy Risk,ITALY,ITALY,YA,YA,YACHT CHARTER 13+ PAX,YACHT CHARTER 13+ PAX,0,0,3453466,3453466,N/K,N/K,N/K,N/K,N/K,N/K,N/K,N/K,N/K,N/K,N/K,N/K,f56,f56,2500,2500,2012,2012,TRIESTE,TRIESTE,6,6,N/K,N/K,PIOnline,PIOnline,Test Case Passed
398,398,6,6,123654,123654,DRAFT,DRAFT,string,string,true,true,true,true,130179,130179,130179,130179,1044648,1044648,112673,112673,0,0,1,1,2,2,682637,682637,682637,682637,1044648,1044648,73328,73328,N/K,N/K,Test3Member Variation1,Test3Member Variation1,N/K,N/K,N/K,N/K,N/K,N/K,N/K,N/K,104,104,POST & CO (P & I),POST & CO (P & I),claims@post-co.com,claims@post-co.com,2022,2022,string,string,USD,USD,263,Test3Policy Risk,Test3Policy Risk,ITALY,ITALY,YA,YA,YACHT CHARTER 13+ PAX,YACHT CHARTER 13+ PAX,0,0,3453466,3453466,N/K,N/K,N/K,N/K,N/K,N/K,N/K,N/K,N/K,N/K,N/K,N/K,f56,f56,2500,2500,2012,2012,TRIESTE,TRIESTE,5,5,N/K,N/K,PIOnline,PIOnline,Test Case Passed
399,399,7,7,123654,123654,DRAFT,DRAFT,string,string,true,true,true,true,130179,130179,130179,130179,1044648,1044648,112673,112673,0,0,1,1,2,2,682637,682637,682637,682637,1044648,1044648,73328,73328,N/K,N/K,Test3Member Variation1,Test3Member Variation1,N/K,N/K,N/K,N/K,N/K,N/K,N/K,N/K,104,104,POST & CO (P & I),POST & CO (P & I),claims@post-co.com,claims@post-co.com,2022,2022,string,string,USD,USD,263,Test3Policy Risk,Test3Policy Risk,ITALY,ITALY,YA,YA,YACHT CHARTER 13+ PAX,YACHT CHARTER 13+ PAX,0,0,3453466,3453466,N/K,N/K,N/K,N/K,N/K,N/K,N/K,N/K,N/K,N/K,N/K,N/K,f56,f56,2500,2500,2012,2012,TRIESTE,TRIESTE,6,6,N/K,N/K,PIOnline,PIOnline,Test Case Passed
400,400,8,8,123654,123654,DRAFT,DRAFT,string,string,true,true,true,true,130179,130179,130179,130179,1044648,1044648,112673,112673,0,0,1,1,2,2,682637,682637,682637,682637,1044648,1044648,73328,73328,N/K,N/K,Test3Member Variation1,Test3Member Variation1,N/K,N/K,N/K,N/K,N/K,N/K,N/K,N/K,104,104,POST & CO (P & I),POST & CO (P & I),claims@post-co.com,claims@post-co.com,2022,2022,string,string,USD,USD,263,Test3Policy Risk,Test3Policy Risk,ITALY,ITALY,YA,YA,YACHT CHARTER 13+ PAX,YACHT CHARTER 13+ PAX,0,0,3453466,3453466,N/K,N/K,N/K,N/K,N/K,N/K,N/K,N/K,N/K,N/K,N/K,N/K,f56,f56,2500,2500,2012,2012,TRIESTE,TRIESTE,3,3,N/K,N/K,PIOnline,PIOnline,Test Case Passed
401,401,9,9,123654,123654,DRAFT,DRAFT,string,string,true,true,true,true,130179,130179,130179,130179,1044648,1044648,112673,112673,0,0,1,1,2,2,682637,682637,682637,682637,1044648,1044648,73328,73328,N/K,N/K,Test3Member Variation1,Test3Member Variation1,N/K,N/K,N/K,N/K,N/K,N/K,N/K,N/K,104,104,POST & CO (P & I),POST & CO (P & I),claims@post-co.com,claims@post-co.com,2022,2022,string,string,USD,USD,263,Test3Policy Risk,Test3Policy Risk,ITALY,ITALY,YA,YA,YACHT CHARTER 13+ PAX,YACHT CHARTER 13+ PAX,0,0,3453466,3453466,N/K,N/K,N/K,N/K,N/K,N/K,N/K,N/K,N/K,N/K,N/K,N/K,f56,f56,2500,2500,2012,2012,TRIESTE,TRIESTE,1,1,N/K,N/K,PIOnline,PIOnline,Test Case Passed
402,402,10,10,123654,123654,DRAFT,DRAFT,string,string,true,true,true,true,130179,130179,130179,130179,1044648,1044648,112673,112673,0,0,1,1,2,2,682637,682637,682637,682637,1044648,1044648,73328,73328,N/K,N/K,Test3Member Variation1,Test3Member Variation1,N/K,N/K,N/K,N/K,N/K,N/K,N/K,N/K,104,104,POST & CO (P & I),POST & CO (P & I),claims@post-co.com,claims@post-co.com,2022,2022,string,string,USD,USD,263,Test3Policy Risk,Test3Policy Risk,ITALY,ITALY,YA,YA,YACHT CHARTER 13+ PAX,YACHT CHARTER 13+ PAX,0,0,3453466,3453466,N/K,N/K,N/K,N/K,N/K,N/K,N/K,N/K,N/K,N/K,N/K,N/K,f56,f56,2500,2500,2012,2012,TRIESTE,TRIESTE,7,7,N/K,N/K,PIOnline,PIOnline,Test Case Passed
403,403,11,11,123654,123654,DRAFT,DRAFT,string,string,true,true,true,true,130179,130179,130179,130179,1044648,1044648,112673,112673,0,0,1,1,2,2,682637,682637,682637,682637,1044648,1044648,73328,73328,N/K,N/K,Test3Member Variation1,Test3Member Variation1,N/K,N/K,N/K,N/K,N/K,N/K,N/K,N/K,104,104,POST & CO (P & I),POST & CO (P & I),claims@post-co.com,claims@post-co.com,2022,2022,string,string,USD,USD,263,Test3Policy Risk,Test3Policy Risk,ITALY,ITALY,YA,YA,YACHT CHARTER 13+ PAX,YACHT CHARTER 13+ PAX,0,0,3453466,3453466,N/K,N/K,N/K,N/K,N/K,N/K,N/K,N/K,N/K,N/K,N/K,N/K,f56,f56,2500,2500,2012,2012,TRIESTE,TRIESTE,3,3,N/K,N/K,PIOnline,PIOnline,Test Case Passed
404,404,12,12,123654,123654,DRAFT,DRAFT,string,string,true,true,true,true,130179,130179,130179,130179,1044648,1044648,112673,112673,0,0,1,1,2,2,682637,682637,682637,682637,1044648,1044648,73328,73328,N/K,N/K,Test3Member Variation1,Test3Member Variation1,N/K,N/K,N/K,N/K,N/K,N/K,N/K,N/K,104,104,POST & CO (P & I),POST & CO (P & I),claims@post-co.com,claims@post-co.com,2022,2022,string,string,USD,USD,263,Test3Policy Risk,Test3Policy Risk,ITALY,ITALY,YA,YA,YACHT CHARTER 13+ PAX,YACHT CHARTER 13+ PAX,0,0,3453466,3453466,N/K,N/K,N/K,N/K,N/K,N/K,N/K,N/K,N/K,N/K,N/K,N/K,f56,f56,2500,2500,2012,2012,TRIESTE,TRIESTE,5,5,N/K,N/K,PIOnline,PIOnline,Test Case Passed
405,405,13,13,123654,123654,DRAFT,DRAFT,string,string,true,true,true,true,130179,130179,130179,130179,1044648,1044648,112673,112673,0,0,1,1,2,2,682637,682637,682637,682637,1044648,1044648,73328,73328,N/K,N/K,Test3Member Variation1,Test3Member Variation1,N/K,N/K,N/K,N/K,N/K,N/K,N/K,N/K,104,104,POST & CO (P & I),POST & CO (P & I),claims@post-co.com,claims@post-co.com,2022,2022,string,string,USD,USD,263,Test3Policy Risk,Test3Policy Risk,ITALY,ITALY,YA,YA,YACHT CHARTER 13+ PAX,YACHT CHARTER 13+ PAX,0,0,3453466,3453466,N/K,N/K,N/K,N/K,N/K,N/K,N/K,N/K,N/K,N/K,N/K,N/K,f56,f56,2500,2500,2012,2012,TRIESTE,TRIESTE,2,2,N/K,N/K,PIOnline,PIOnline,Test Case Passed
406,406,16,16,123654,123654,DRAFT,DRAFT,string,string,true,true,true,true,130179,130179,130179,130179,1044648,1044648,112673,112673,0,0,1,1,2,2,682637,682637,682637,682637,1044648,1044648,73328,73328,N/K,N/K,Test3Member Variation1,Test3Member Variation1,N/K,N/K,N/K,N/K,N/K,N/K,N/K,N/K,104,104,POST & CO (P & I),POST & CO (P & I),claims@post-co.com,claims@post-co.com,2022,2022,string,string,USD,USD,263,Test3Policy Risk,Test3Policy Risk,ITALY,ITALY,YA,YA,YACHT CHARTER 13+ PAX,YACHT CHARTER 13+ PAX,0,0,3453466,3453466,N/K,N/K,N/K,N/K,N/K,N/K,N/K,N/K,N/K,N/K,N/K,N/K,f56,f56,2500,2500,2012,2012,TRIESTE,TRIESTE,2,2,N/K,N/K,PIOnline,PIOnline,Test Case Passed
407,407,17,17,123654,123654,DRAFT,DRAFT,string,string,true,true,true,true,130179,130179,130179,130179,1044648,1044648,112673,112673,0,0,1,1,1,1,682637,682637,682637,682637,1044648,1044648,73328,73328,N/K,N/K,Test3Member Variation1,Test3Member Variation1,N/K,N/K,N/K,N/K,N/K,N/K,N/K,N/K,104,104,POST & CO (P & I),POST & CO (P & I),claims@post-co.com,claims@post-co.com,2022,2022,string,string,USD,USD,263,Test3Policy Risk,Test3Policy Risk,ITALY,ITALY,YA,YA,YACHT CHARTER 13+ PAX,YACHT CHARTER 13+ PAX,0,0,3453466,3453466,N/K,N/K,N/K,N/K,N/K,N/K,N/K,N/K,N/K,N/K,N/K,N/K,f56,f56,2500,2500,2012,2012,TRIESTE,TRIESTE,1,1,N/K,N/K,PIOnline,PIOnline,Test Case Passed
408,408,18,18,123654,123654,DRAFT,DRAFT,string,string,true,true,true,true,130179,130179,130179,130179,1044648,1044648,112673,112673,0,0,1,1,2,2,682637,682637,682637,682637,1044648,1044648,73328,73328,N/K,N/K,Test3Member Variation1,Test3Member Variation1,N/K,N/K,N/K,N/K,N/K,N/K,N/K,N/K,104,104,POST & CO (P & I),POST & CO (P & I),claims@post-co.com,claims@post-co.com,2022,2022,string,string,USD,USD,263,Test3Policy Risk,Test3Policy Risk,ITALY,ITALY,YA,YA,YACHT CHARTER 13+ PAX,YACHT CHARTER 13+ PAX,0,0,3453466,3453466,N/K,N/K,N/K,N/K,N/K,N/K,N/K,N/K,N/K,N/K,N/K,N/K,f56,f56,2500,2500,2012,2012,TRIESTE,TRIESTE,7,7,N/K,N/K,PIOnline,PIOnline,Test Case Passed
409,409,19,19,123654,123654,DRAFT,DRAFT,string,string,true,true,true,true,130179,130179,130179,130179,1044648,1044648,112673,112673,0,0,1,1,2,2,682637,682637,682637,682637,1044648,1044648,73328,73328,N/K,N/K,Test3Member Variation1,Test3Member Variation1,N/K,N/K,N/K,N/K,N/K,N/K,N/K,N/K,104,104,POST & CO (P & I),POST & CO (P & I),claims@post-co.com,claims@post-co.com,2022,2022,string,string,USD,USD,263,Test3Policy Risk,Test3Policy Risk,ITALY,ITALY,YA,YA,YACHT CHARTER 13+ PAX,YACHT CHARTER 13+ PAX,0,0,3453466,3453466,N/K,N/K,N/K,N/K,N/K,N/K,N/K,N/K,N/K,N/K,N/K,N/K,f56,f56,2500,2500,2012,2012,TRIESTE,TRIESTE,4,4,N/K,N/K,PIOnline,PIOnline,Test Case Passed
410,410,23,23,123654,123654,DRAFT,DRAFT,string,string,true,true,true,true,130179,130179,130179,130179,1044648,1044648,112673,112673,0,0,1,1,2,2,682637,682637,682637,682637,1044648,1044648,73328,73328,N/K,N/K,Test3Member Variation1,Test3Member Variation1,N/K,N/K,N/K,N/K,N/K,N/K,N/K,N/K,104,104,POST & CO (P & I),POST & CO (P & I),claims@post-co.com,claims@post-co.com,2022,2022,string,string,USD,USD,263,Test3Policy Risk,Test3Policy Risk,ITALY,ITALY,YA,YA,YACHT CHARTER 13+ PAX,YACHT CHARTER 13+ PAX,0,0,3453466,3453466,N/K,N/K,N/K,N/K,N/K,N/K,N/K,N/K,N/K,N/K,N/K,N/K,f56,f56,2500,2500,2012,2012,TRIESTE,TRIESTE,4,4,N/K,N/K,PIOnline,PIOnline,Test Case Passed
411,411,24,24,123654,123654,DRAFT,DRAFT,string,string,true,true,true,true,130179,130179,130179,130179,1044648,1044648,112673,112673,0,0,1,1,2,2,682637,682637,682637,682637,1044648,1044648,73328,73328,N/K,N/K,Test3Member Variation1,Test3Member Variation1,N/K,N/K,N/K,N/K,N/K,N/K,N/K,N/K,104,104,POST & CO (P & I),POST & CO (P & I),claims@post-co.com,claims@post-co.com,2022,2022,string,string,USD,USD,263,Test3Policy Risk,Test3Policy Risk,ITALY,ITALY,YA,YA,YACHT CHARTER 13+ PAX,YACHT CHARTER 13+ PAX,0,0,3453466,3453466,N/K,N/K,N/K,N/K,N/K,N/K,N/K,N/K,N/K,N/K,N/K,N/K,f56,f56,2500,2500,2012,2012,TRIESTE,TRIESTE,2,2,N/K,N/K,PIOnline,PIOnline,Test Case Passed
412,412,25,25,123654,123654,DRAFT,DRAFT,string,string,true,true,true,true,130179,130179,130179,130179,1044648,1044648,112673,112673,0,0,1,1,2,2,682637,682637,682637,682637,1044648,1044648,73328,73328,N/K,N/K,Test3Member Variation1,Test3Member Variation1,N/K,N/K,N/K,N/K,N/K,N/K,N/K,N/K,104,104,POST & CO (P & I),POST & CO (P & I),claims@post-co.com,claims@post-co.com,2022,2022,string,string,USD,USD,263,Test3Policy Risk,Test3Policy Risk,ITALY,ITALY,YA,YA,YACHT CHARTER 13+ PAX,YACHT CHARTER 13+ PAX,0,0,3453466,3453466,N/K,N/K,N/K,N/K,N/K,N/K,N/K,N/K,N/K,N/K,N/K,N/K,f56,f56,2500,2500,2012,2012,TRIESTE,TRIESTE,5,5,N/K,N/K,PIOnline,PIOnline,Test Case Passed
413,413,26,26,123654,123654,DRAFT,DRAFT,string,string,true,true,true,true,130179,130179,130179,130179,1044648,1044648,112673,112673,0,0,1,1,2,2,682637,682637,682637,682637,1044648,1044648,73328,73328,N/K,N/K,Test3Member Variation1,Test3Member Variation1,N/K,N/K,N/K,N/K,N/K,N/K,N/K,N/K,104,104,POST & CO (P & I),POST & CO (P & I),claims@post-co.com,claims@post-co.com,2022,2022,string,string,USD,USD,263,Test3Policy Risk,Test3Policy Risk,ITALY,ITALY,YA,YA,YACHT CHARTER 13+ PAX,YACHT CHARTER 13+ PAX,0,0,3453466,3453466,N/K,N/K,N/K,N/K,N/K,N/K,N/K,N/K,N/K,N/K,N/K,N/K,f56,f56,2500,2500,2012,2012,TRIESTE,TRIESTE,5,5,N/K,N/K,PIOnline,PIOnline,Test Case Passed
414,414,1,1,123654,123654,DRAFT,DRAFT,string,string,true,true,true,true,130179,130179,130179,130179,1044648,1044648,112673,112673,0,0,1,1,2,2,682637,682637,682637,682637,1044648,1044648,73328,73328,N/K,N/K,Test3Member Variation1,Test3Member Variation1,N/K,N/K,N/K,N/K,N/K,N/K,N/K,N/K,104,104,POST & CO (P & I),POST & CO (P & I),claims@post-co.com,claims@post-co.com,2022,2022,string,string,USD,USD,263,Test3Policy Risk,Test3Policy Risk,ITALY,ITALY,YA,YA,YACHT CHARTER 13+ PAX,YACHT CHARTER 13+ PAX,0,0,3453466,3453466,N/K,N/K,N/K,N/K,N/K,N/K,N/K,N/K,N/K,N/K,N/K,N/K,f56,f56,2500,2500,2012,2012,TRIESTE,TRIESTE,5,5,N/K,N/K,PIOnline,PIOnline,Test Case Passed
415,415,2,2,123654,123654,DRAFT,DRAFT,string,string,true,true,true,true,130179,130179,130179,130179,1044648,1044648,112673,112673,0,0,1,1,2,2,682637,682637,682637,682637,1044648,1044648,73328,73328,N/K,N/K,Test3Member Variation1,Test3Member Variation1,N/K,N/K,N/K,N/K,N/K,N/K,N/K,N/K,104,104,POST & CO (P & I),POST & CO (P & I),claims@post-co.com,claims@post-co.com,2022,2022,string,string,USD,USD,263,Test3Policy Risk,Test3Policy Risk,ITALY,ITALY,YA,YA,YACHT CHARTER 13+ PAX,YACHT CHARTER 13+ PAX,0,0,3453466,3453466,N/K,N/K,N/K,N/K,N/K,N/K,N/K,N/K,N/K,N/K,N/K,N/K,f56,f56,2500,2500,2012,2012,TRIESTE,TRIESTE,1,1,N/K,N/K,PIOnline,PIOnline,Test Case Passed
416,416,3,3,123654,123654,DRAFT,DRAFT,string,string,true,true,true,true,130179,130179,130179,130179,1044648,1044648,112673,112673,0,0,1,1,2,2,682637,682637,682637,682637,1044648,1044648,73328,73328,N/K,N/K,Test3Member Variation1,Test3Member Variation1,N/K,N/K,N/K,N/K,N/K,N/K,N/K,N/K,104,104,POST & CO (P & I),POST & CO (P & I),claims@post-co.com,claims@post-co.com,2022,2022,string,string,USD,USD,263,Test3Policy Risk,Test3Policy Risk,ITALY,ITALY,YA,YA,YACHT CHARTER 13+ PAX,YACHT CHARTER 13+ PAX,0,0,3453466,3453466,N/K,N/K,N/K,N/K,N/K,N/K,N/K,N/K,N/K,N/K,N/K,N/K,f56,f56,2500,2500,2012,2012,TRIESTE,TRIESTE,2,2,N/K,N/K,PIOnline,PIOnline,Test Case Passed
417,417,4,4,123654,123654,DRAFT,DRAFT,string,string,true,true,true,true,130179,130179,130179,130179,1044648,1044648,112673,112673,0,0,1,1,2,2,682637,682637,682637,682637,1044648,1044648,73328,73328,N/K,N/K,Test3Member Variation1,Test3Member Variation1,N/K,N/K,N/K,N/K,N/K,N/K,N/K,N/K,104,104,POST & CO (P & I),POST & CO (P & I),claims@post-co.com,claims@post-co.com,2022,2022,string,string,USD,USD,263,Test3Policy Risk,Test3Policy Risk,ITALY,ITALY,YA,YA,YACHT CHARTER 13+ PAX,YACHT CHARTER 13+ PAX,0,0,3453466,3453466,N/K,N/K,N/K,N/K,N/K,N/K,N/K,N/K,N/K,N/K,N/K,N/K,f56,f56,2500,2500,2012,2012,TRIESTE,TRIESTE,3,3,N/K,N/K,PIOnline,PIOnline,Test Case Passed
418,418,6,6,123654,123654,DRAFT,DRAFT,string,string,true,true,true,true,130179,130179,130179,130179,1044648,1044648,112673,112673,0,0,1,1,2,2,682637,682637,682637,682637,1044648,1044648,73328,73328,N/K,N/K,Test3Member Variation1,Test3Member Variation1,N/K,N/K,N/K,N/K,N/K,N/K,N/K,N/K,104,104,POST & CO (P & I),POST & CO (P & I),claims@post-co.com,claims@post-co.com,2022,2022,string,string,USD,USD,263,Test3Policy Risk,Test3Policy Risk,ITALY,ITALY,YA,YA,YACHT CHARTER 13+ PAX,YACHT CHARTER 13+ PAX,0,0,3453466,3453466,N/K,N/K,N/K,N/K,N/K,N/K,N/K,N/K,N/K,N/K,N/K,N/K,f56,f56,2500,2500,2012,2012,TRIESTE,TRIESTE,2,2,N/K,N/K,PIOnline,PIOnline,Test Case Passed
419,419,7,7,123654,123654,DRAFT,DRAFT,string,string,true,true,true,true,130179,130179,130179,130179,1044648,1044648,112673,112673,0,0,1,1,2,2,682637,682637,682637,682637,1044648,1044648,73328,73328,N/K,N/K,Test3Member Variation1,Test3Member Variation1,N/K,N/K,N/K,N/K,N/K,N/K,N/K,N/K,104,104,POST & CO (P & I),POST & CO (P & I),claims@post-co.com,claims@post-co.com,2022,2022,string,string,USD,USD,263,Test3Policy Risk,Test3Policy Risk,ITALY,ITALY,YA,YA,YACHT CHARTER 13+ PAX,YACHT CHARTER 13+ PAX,0,0,3453466,3453466,N/K,N/K,N/K,N/K,N/K,N/K,N/K,N/K,N/K,N/K,N/K,N/K,f56,f56,2500,2500,2012,2012,TRIESTE,TRIESTE,5,5,N/K,N/K,PIOnline,PIOnline,Test Case Passed
420,420,8,8,123654,123654,DRAFT,DRAFT,string,string,true,true,true,true,130179,130179,130179,130179,1044648,1044648,112673,112673,0,0,1,1,2,2,682637,682637,682637,682637,1044648,1044648,73328,73328,N/K,N/K,Test3Member Variation1,Test3Member Variation1,N/K,N/K,N/K,N/K,N/K,N/K,N/K,N/K,104,104,POST & CO (P & I),POST & CO (P & I),claims@post-co.com,claims@post-co.com,2022,2022,string,string,USD,USD,263,Test3Policy Risk,Test3Policy Risk,ITALY,ITALY,YA,YA,YACHT CHARTER 13+ PAX,YACHT CHARTER 13+ PAX,0,0,3453466,3453466,N/K,N/K,N/K,N/K,N/K,N/K,N/K,N/K,N/K,N/K,N/K,N/K,f56,f56,2500,2500,2012,2012,TRIESTE,TRIESTE,2,2,N/K,N/K,PIOnline,PIOnline,Test Case Passed
421,421,9,9,123654,123654,DRAFT,DRAFT,string,string,true,true,true,true,130179,130179,130179,130179,1044648,1044648,112673,112673,0,0,1,1,2,2,682637,682637,682637,682637,1044648,1044648,73328,73328,N/K,N/K,Test3Member Variation1,Test3Member Variation1,N/K,N/K,N/K,N/K,N/K,N/K,N/K,N/K,104,104,POST & CO (P & I),POST & CO (P & I),claims@post-co.com,claims@post-co.com,2022,2022,string,string,USD,USD,263,Test3Policy Risk,Test3Policy Risk,ITALY,ITALY,YA,YA,YACHT CHARTER 13+ PAX,YACHT CHARTER 13+ PAX,0,0,3453466,3453466,N/K,N/K,N/K,N/K,N/K,N/K,N/K,N/K,N/K,N/K,N/K,N/K,f56,f56,2500,2500,2012,2012,TRIESTE,TRIESTE,7,7,N/K,N/K,PIOnline,PIOnline,Test Case Passed
422,422,10,10,123654,123654,DRAFT,DRAFT,string,string,true,true,true,true,130179,130179,130179,130179,1044648,1044648,112673,112673,0,0,1,1,2,2,682637,682637,682637,682637,1044648,1044648,73328,73328,N/K,N/K,Test3Member Variation1,Test3Member Variation1,N/K,N/K,N/K,N/K,N/K,N/K,N/K,N/K,104,104,POST & CO (P & I),POST & CO (P & I),claims@post-co.com,claims@post-co.com,2022,2022,string,string,USD,USD,263,Test3Policy Risk,Test3Policy Risk,ITALY,ITALY,YA,YA,YACHT CHARTER 13+ PAX,YACHT CHARTER 13+ PAX,0,0,3453466,3453466,N/K,N/K,N/K,N/K,N/K,N/K,N/K,N/K,N/K,N/K,N/K,N/K,f56,f56,2500,2500,2012,2012,TRIESTE,TRIESTE,1,1,N/K,N/K,PIOnline,PIOnline,Test Case Passed
423,423,11,11,123654,123654,DRAFT,DRAFT,string,string,true,true,true,true,130179,130179,130179,130179,1044648,1044648,112673,112673,0,0,1,1,2,2,682637,682637,682637,682637,1044648,1044648,73328,73328,N/K,N/K,Test3Member Variation1,Test3Member Variation1,N/K,N/K,N/K,N/K,N/K,N/K,N/K,N/K,104,104,POST & CO (P & I),POST & CO (P & I),claims@post-co.com,claims@post-co.com,2022,2022,string,string,USD,USD,263,Test3Policy Risk,Test3Policy Risk,ITALY,ITALY,YA,YA,YACHT CHARTER 13+ PAX,YACHT CHARTER 13+ PAX,0,0,3453466,3453466,N/K,N/K,N/K,N/K,N/K,N/K,N/K,N/K,N/K,N/K,N/K,N/K,f56,f56,2500,2500,2012,2012,TRIESTE,TRIESTE,1,1,N/K,N/K,PIOnline,PIOnline,Test Case Passed
424,424,12,12,123654,123654,DRAFT,DRAFT,string,string,true,true,true,true,130179,130179,130179,130179,1044648,1044648,112673,112673,0,0,1,1,2,2,682637,682637,682637,682637,1044648,1044648,73328,73328,N/K,N/K,Test3Member Variation1,Test3Member Variation1,N/K,N/K,N/K,N/K,N/K,N/K,N/K,N/K,104,104,POST & CO (P & I),POST & CO (P & I),claims@post-co.com,claims@post-co.com,2022,2022,string,string,USD,USD,263,Test3Policy Risk,Test3Policy Risk,ITALY,ITALY,YA,YA,YACHT CHARTER 13+ PAX,YACHT CHARTER 13+ PAX,0,0,3453466,3453466,N/K,N/K,N/K,N/K,N/K,N/K,N/K,N/K,N/K,N/K,N/K,N/K,f56,f56,2500,2500,2012,2012,TRIESTE,TRIESTE,5,5,N/K,N/K,PIOnline,PIOnline,Test Case Passed
425,425,13,13,123654,123654,DRAFT,DRAFT,string,string,true,true,true,true,130179,130179,130179,130179,1044648,1044648,112673,112673,0,0,1,1,2,2,682637,682637,682637,682637,1044648,1044648,73328,73328,N/K,N/K,Test3Member Variation1,Test3Member Variation1,N/K,N/K,N/K,N/K,N/K,N/K,N/K,N/K,104,104,POST & CO (P & I),POST & CO (P & I),claims@post-co.com,claims@post-co.com,2022,2022,string,string,USD,USD,263,Test3Policy Risk,Test3Policy Risk,ITALY,ITALY,YA,YA,YACHT CHARTER 13+ PAX,YACHT CHARTER 13+ PAX,0,0,3453466,3453466,N/K,N/K,N/K,N/K,N/K,N/K,N/K,N/K,N/K,N/K,N/K,N/K,f56,f56,2500,2500,2012,2012,TRIESTE,TRIESTE,6,6,N/K,N/K,PIOnline,PIOnline,Test Case Passed
426,426,14,14,123654,123654,DRAFT,DRAFT,string,string,true,true,true,true,130179,130179,130179,130179,1044648,1044648,112673,112673,0,0,1,1,2,2,682637,682637,682637,682637,1044648,1044648,73328,73328,N/K,N/K,Test3Member Variation1,Test3Member Variation1,N/K,N/K,N/K,N/K,N/K,N/K,N/K,N/K,104,104,POST & CO (P & I),POST & CO (P & I),claims@post-co.com,claims@post-co.com,2022,2022,string,string,USD,USD,263,Test3Policy Risk,Test3Policy Risk,ITALY,ITALY,YA,YA,YACHT CHARTER 13+ PAX,YACHT CHARTER 13+ PAX,0,0,3453466,3453466,N/K,N/K,N/K,N/K,N/K,N/K,N/K,N/K,N/K,N/K,N/K,N/K,f56,f56,2500,2500,2012,2012,TRIESTE,TRIESTE,5,5,N/K,N/K,PIOnline,PIOnline,Test Case Passed
427,427,15,15,123654,123654,DRAFT,DRAFT,string,string,true,true,true,true,130179,130179,130179,130179,1044648,1044648,112673,112673,0,0,1,1,2,2,682637,682637,682637,682637,1044648,1044648,73328,73328,N/K,N/K,Test3Member Variation1,Test3Member Variation1,N/K,N/K,N/K,N/K,N/K,N/K,N/K,N/K,104,104,POST & CO (P & I),POST & CO (P & I),claims@post-co.com,claims@post-co.com,2022,2022,string,string,USD,USD,263,Test3Policy Risk,Test3Policy Risk,ITALY,ITALY,YA,YA,YACHT CHARTER 13+ PAX,YACHT CHARTER 13+ PAX,0,0,3453466,3453466,N/K,N/K,N/K,N/K,N/K,N/K,N/K,N/K,N/K,N/K,N/K,N/K,f56,f56,2500,2500,2012,2012,TRIESTE,TRIESTE,1,1,N/K,N/K,PIOnline,PIOnline,Test Case Passed
428,428,16,16,123654,123654,DRAFT,DRAFT,string,string,true,true,true,true,130179,130179,130179,130179,1044648,1044648,112673,112673,0,0,1,1,2,2,682637,682637,682637,682637,1044648,1044648,73328,73328,N/K,N/K,Test3Member Variation1,Test3Member Variation1,N/K,N/K,N/K,N/K,N/K,N/K,N/K,N/K,104,104,POST & CO (P & I),POST & CO (P & I),claims@post-co.com,claims@post-co.com,2022,2022,string,string,USD,USD,263,Test3Policy Risk,Test3Policy Risk,ITALY,ITALY,YA,YA,YACHT CHARTER 13+ PAX,YACHT CHARTER 13+ PAX,0,0,3453466,3453466,N/K,N/K,N/K,N/K,N/K,N/K,N/K,N/K,N/K,N/K,N/K,N/K,f56,f56,2500,2500,2012,2012,TRIESTE,TRIESTE,3,3,N/K,N/K,PIOnline,PIOnline,Test Case Passed
429,429,17,17,123654,123654,DRAFT,DRAFT,string,string,true,true,true,true,130179,130179,130179,130179,1044648,1044648,112673,112673,0,0,1,1,2,2,682637,682637,682637,682637,1044648,1044648,73328,73328,N/K,N/K,Test3Member Variation1,Test3Member Variation1,N/K,N/K,N/K,N/K,N/K,N/K,N/K,N/K,104,104,POST & CO (P & I),POST & CO (P & I),claims@post-co.com,claims@post-co.com,2022,2022,string,string,USD,USD,263,Test3Policy Risk,Test3Policy Risk,ITALY,ITALY,YA,YA,YACHT CHARTER 13+ PAX,YACHT CHARTER 13+ PAX,0,0,3453466,3453466,N/K,N/K,N/K,N/K,N/K,N/K,N/K,N/K,N/K,N/K,N/K,N/K,f56,f56,2500,2500,2012,2012,TRIESTE,TRIESTE,1,1,N/K,N/K,PIOnline,PIOnline,Test Case Passed
430,430,18,18,123654,123654,DRAFT,DRAFT,string,string,true,true,true,true,130179,130179,130179,130179,1044648,1044648,112673,112673,0,0,1,1,2,2,682637,682637,682637,682637,1044648,1044648,73328,73328,N/K,N/K,Test3Member Variation1,Test3Member Variation1,N/K,N/K,N/K,N/K,N/K,N/K,N/K,N/K,104,104,POST & CO (P & I),POST & CO (P & I),claims@post-co.com,claims@post-co.com,2022,2022,string,string,USD,USD,263,Test3Policy Risk,Test3Policy Risk,ITALY,ITALY,YA,YA,YACHT CHARTER 13+ PAX,YACHT CHARTER 13+ PAX,0,0,3453466,3453466,N/K,N/K,N/K,N/K,N/K,N/K,N/K,N/K,N/K,N/K,N/K,N/K,f56,f56,2500,2500,2012,2012,TRIESTE,TRIESTE,1,1,N/K,N/K,PIOnline,PIOnline,Test Case Passed
431,431,19,19,123654,123654,DRAFT,DRAFT,string,string,true,true,true,true,130179,130179,130179,130179,1044648,1044648,112673,112673,0,0,1,1,2,2,682637,682637,682637,682637,1044648,1044648,73328,73328,N/K,N/K,Test3Member Variation1,Test3Member Variation1,N/K,N/K,N/K,N/K,N/K,N/K,N/K,N/K,104,104,POST & CO (P & I),POST & CO (P & I),claims@post-co.com,claims@post-co.com,2022,2022,string,string,USD,USD,263,Test3Policy Risk,Test3Policy Risk,ITALY,ITALY,YA,YA,YACHT CHARTER 13+ PAX,YACHT CHARTER 13+ PAX,0,0,3453466,3453466,N/K,N/K,N/K,N/K,N/K,N/K,N/K,N/K,N/K,N/K,N/K,N/K,f56,f56,2500,2500,2012,2012,TRIESTE,TRIESTE,6,6,N/K,N/K,PIOnline,PIOnline,Test Case Passed
432,432,20,20,123654,123654,DRAFT,DRAFT,string,string,true,true,true,true,130179,130179,130179,130179,1044648,1044648,112673,112673,0,0,1,1,2,2,682637,682637,682637,682637,1044648,1044648,73328,73328,N/K,N/K,Test3Member Variation1,Test3Member Variation1,N/K,N/K,N/K,N/K,N/K,N/K,N/K,N/K,104,104,POST & CO (P & I),POST & CO (P & I),claims@post-co.com,claims@post-co.com,2022,2022,string,string,USD,USD,263,Test3Policy Risk,Test3Policy Risk,ITALY,ITALY,YA,YA,YACHT CHARTER 13+ PAX,YACHT CHARTER 13+ PAX,0,0,3453466,3453466,N/K,N/K,N/K,N/K,N/K,N/K,N/K,N/K,N/K,N/K,N/K,N/K,f56,f56,2500,2500,2012,2012,TRIESTE,TRIESTE,2,2,N/K,N/K,PIOnline,PIOnline,Test Case Passed
433,433,21,21,123654,123654,DRAFT,DRAFT,string,string,true,true,true,true,130179,130179,130179,130179,1044648,1044648,112673,112673,0,0,1,1,2,2,682637,682637,682637,682637,1044648,1044648,73328,73328,N/K,N/K,Test3Member Variation1,Test3Member Variation1,N/K,N/K,N/K,N/K,N/K,N/K,N/K,N/K,104,104,POST & CO (P & I),POST & CO (P & I),claims@post-co.com,claims@post-co.com,2022,2022,string,string,USD,USD,263,Test3Policy Risk,Test3Policy Risk,ITALY,ITALY,YA,YA,YACHT CHARTER 13+ PAX,YACHT CHARTER 13+ PAX,0,0,3453466,3453466,N/K,N/K,N/K,N/K,N/K,N/K,N/K,N/K,N/K,N/K,N/K,N/K,f56,f56,2500,2500,2012,2012,TRIESTE,TRIESTE,6,6,N/K,N/K,PIOnline,PIOnline,Test Case Passed
434,434,22,22,123654,123654,DRAFT,DRAFT,string,string,true,true,true,true,130179,130179,130179,130179,1044648,1044648,112673,112673,0,0,1,1,2,2,682637,682637,682637,682637,1044648,1044648,73328,73328,N/K,N/K,Test3Member Variation1,Test3Member Variation1,N/K,N/K,N/K,N/K,N/K,N/K,N/K,N/K,104,104,POST & CO (P & I),POST & CO (P & I),claims@post-co.com,claims@post-co.com,2022,2022,string,string,USD,USD,263,Test3Policy Risk,Test3Policy Risk,ITALY,ITALY,YA,YA,YACHT CHARTER 13+ PAX,YACHT CHARTER 13+ PAX,0,0,3453466,3453466,N/K,N/K,N/K,N/K,N/K,N/K,N/K,N/K,N/K,N/K,N/K,N/K,f56,f56,2500,2500,2012,2012,TRIESTE,TRIESTE,1,1,N/K,N/K,PIOnline,PIOnline,Test Case Passed
435,435,23,23,123654,123654,DRAFT,DRAFT,string,string,true,true,true,true,130179,130179,130179,130179,1044648,1044648,112673,112673,0,0,1,1,2,2,682637,682637,682637,682637,1044648,1044648,73328,73328,N/K,N/K,Test3Member Variation1,Test3Member Variation1,N/K,N/K,N/K,N/K,N/K,N/K,N/K,N/K,104,104,POST & CO (P & I),POST & CO (P & I),claims@post-co.com,claims@post-co.com,2022,2022,string,string,USD,USD,263,Test3Policy Risk,Test3Policy Risk,ITALY,ITALY,YA,YA,YACHT CHARTER 13+ PAX,YACHT CHARTER 13+ PAX,0,0,3453466,3453466,N/K,N/K,N/K,N/K,N/K,N/K,N/K,N/K,N/K,N/K,N/K,N/K,f56,f56,2500,2500,2012,2012,TRIESTE,TRIESTE,7,7,N/K,N/K,PIOnline,PIOnline,Test Case Passed
436,436,24,24,123654,123654,DRAFT,DRAFT,string,string,true,true,true,true,130179,130179,130179,130179,1044648,1044648,112673,112673,0,0,1,1,2,2,682637,682637,682637,682637,1044648,1044648,73328,73328,N/K,N/K,Test3Member Variation1,Test3Member Variation1,N/K,N/K,N/K,N/K,N/K,N/K,N/K,N/K,104,104,POST & CO (P & I),POST & CO (P & I),claims@post-co.com,claims@post-co.com,2022,2022,string,string,USD,USD,263,Test3Policy Risk,Test3Policy Risk,ITALY,ITALY,YA,YA,YACHT CHARTER 13+ PAX,YACHT CHARTER 13+ PAX,0,0,3453466,3453466,N/K,N/K,N/K,N/K,N/K,N/K,N/K,N/K,N/K,N/K,N/K,N/K,f56,f56,2500,2500,2012,2012,TRIESTE,TRIESTE,7,7,N/K,N/K,PIOnline,PIOnline,Test Case Passed
437,437,25,25,123654,123654,DRAFT,DRAFT,string,string,true,true,true,true,130179,130179,130179,130179,1044648,1044648,112673,112673,0,0,1,1,2,2,682637,682637,682637,682637,1044648,1044648,73328,73328,N/K,N/K,Test3Member Variation1,Test3Member Variation1,N/K,N/K,N/K,N/K,N/K,N/K,N/K,N/K,104,104,POST & CO (P & I),POST & CO (P & I),claims@post-co.com,claims@post-co.com,2022,2022,string,string,USD,USD,263,Test3Policy Risk,Test3Policy Risk,ITALY,ITALY,YA,YA,YACHT CHARTER 13+ PAX,YACHT CHARTER 13+ PAX,0,0,3453466,3453466,N/K,N/K,N/K,N/K,N/K,N/K,N/K,N/K,N/K,N/K,N/K,N/K,f56,f56,2500,2500,2012,2012,TRIESTE,TRIESTE,4,4,N/K,N/K,PIOnline,PIOnline,Test Case Passed
438,438,26,26,123654,123654,DRAFT,DRAFT,string,string,true,true,true,true,130179,130179,130179,130179,1044648,1044648,112673,112673,0,0,1,1,2,2,682637,682637,682637,682637,1044648,1044648,73328,73328,N/K,N/K,Test3Member Variation1,Test3Member Variation1,N/K,N/K,N/K,N/K,N/K,N/K,N/K,N/K,104,104,POST & CO (P & I),POST & CO (P & I),claims@post-co.com,claims@post-co.com,2022,2022,string,string,USD,USD,263,Test3Policy Risk,Test3Policy Risk,ITALY,ITALY,YA,YA,YACHT CHARTER 13+ PAX,YACHT CHARTER 13+ PAX,0,0,3453466,3453466,N/K,N/K,N/K,N/K,N/K,N/K,N/K,N/K,N/K,N/K,N/K,N/K,f56,f56,2500,2500,2012,2012,TRIESTE,TRIESTE,5,5,N/K,N/K,PIOnline,PIOnline,Test Case Passed
439,439,1,1,123654,123654,DRAFT,DRAFT,string,string,true,true,true,true,130179,130179,130179,130179,1044648,1044648,112673,112673,0,0,1,1,2,2,682637,682637,682637,682637,1044648,1044648,73328,73328,N/K,N/K,Test3Member Variation1,Test3Member Variation1,N/K,N/K,N/K,N/K,N/K,N/K,N/K,N/K,104,104,POST & CO (P & I),POST & CO (P & I),claims@post-co.com,claims@post-co.com,2022,2022,string,string,USD,USD,263,Test3Policy Risk,Test3Policy Risk,ITALY,ITALY,YA,YA,YACHT CHARTER 13+ PAX,YACHT CHARTER 13+ PAX,0,0,3453466,3453466,N/K,N/K,N/K,N/K,N/K,N/K,N/K,N/K,N/K,N/K,N/K,N/K,f56,f56,2500,2500,2012,2012,TRIESTE,TRIESTE,6,6,N/K,N/K,PIOnline,PIOnline,Test Case Passed
440,440,2,2,123654,123654,DRAFT,DRAFT,string,string,true,true,true,true,130179,130179,130179,130179,1044648,1044648,112673,112673,0,0,1,1,2,2,682637,682637,682637,682637,1044648,1044648,73328,73328,N/K,N/K,Test3Member Variation1,Test3Member Variation1,N/K,N/K,N/K,N/K,N/K,N/K,N/K,N/K,104,104,POST & CO (P & I),POST & CO (P & I),claims@post-co.com,claims@post-co.com,2022,2022,string,string,USD,USD,263,Test3Policy Risk,Test3Policy Risk,ITALY,ITALY,YA,YA,YACHT CHARTER 13+ PAX,YACHT CHARTER 13+ PAX,0,0,3453466,3453466,N/K,N/K,N/K,N/K,N/K,N/K,N/K,N/K,N/K,N/K,N/K,N/K,f56,f56,2500,2500,2012,2012,TRIESTE,TRIESTE,5,5,N/K,N/K,PIOnline,PIOnline,Test Case Passed
441,441,3,3,123654,123654,DRAFT,DRAFT,string,string,true,true,true,true,130179,130179,130179,130179,1044648,1044648,112673,112673,0,0,1,1,2,2,682637,682637,682637,682637,1044648,1044648,73328,73328,N/K,N/K,Test3Member Variation1,Test3Member Variation1,N/K,N/K,N/K,N/K,N/K,N/K,N/K,N/K,104,104,POST & CO (P & I),POST & CO (P & I),claims@post-co.com,claims@post-co.com,2022,2022,string,string,USD,USD,263,Test3Policy Risk,Test3Policy Risk,ITALY,ITALY,YA,YA,YACHT CHARTER 13+ PAX,YACHT CHARTER 13+ PAX,0,0,3453466,3453466,N/K,N/K,N/K,N/K,N/K,N/K,N/K,N/K,N/K,N/K,N/K,N/K,f56,f56,2500,2500,2012,2012,TRIESTE,TRIESTE,1,1,N/K,N/K,PIOnline,PIOnline,Test Case Passed
442,442,4,4,123654,123654,DRAFT,DRAFT,string,string,true,true,true,true,130179,130179,130179,130179,1044648,1044648,112673,112673,0,0,1,1,2,2,682637,682637,682637,682637,1044648,1044648,73328,73328,N/K,N/K,Test3Member Variation1,Test3Member Variation1,N/K,N/K,N/K,N/K,N/K,N/K,N/K,N/K,104,104,POST & CO (P & I),POST & CO (P & I),claims@post-co.com,claims@post-co.com,2022,2022,string,string,USD,USD,263,Test3Policy Risk,Test3Policy Risk,ITALY,ITALY,YA,YA,YACHT CHARTER 13+ PAX,YACHT CHARTER 13+ PAX,0,0,3453466,3453466,N/K,N/K,N/K,N/K,N/K,N/K,N/K,N/K,N/K,N/K,N/K,N/K,f56,f56,2500,2500,2012,2012,TRIESTE,TRIESTE,4,4,N/K,N/K,PIOnline,PIOnline,Test Case Passed
443,443,5,5,123654,123654,DRAFT,DRAFT,string,string,true,true,true,true,130179,130179,130179,130179,1044648,1044648,112673,112673,0,0,1,1,1,1,682637,682637,682637,682637,1044648,1044648,73328,73328,N/K,N/K,Test3Member Variation1,Test3Member Variation1,N/K,N/K,N/K,N/K,N/K,N/K,N/K,N/K,104,104,POST & CO (P & I),POST & CO (P & I),claims@post-co.com,claims@post-co.com,2022,2022,string,string,USD,USD,263,Test3Policy Risk,Test3Policy Risk,ITALY,ITALY,YA,YA,YACHT CHARTER 13+ PAX,YACHT CHARTER 13+ PAX,0,0,3453466,3453466,N/K,N/K,N/K,N/K,N/K,N/K,N/K,N/K,N/K,N/K,N/K,N/K,f56,f56,2500,2500,2012,2012,TRIESTE,TRIESTE,1,1,N/K,N/K,PIOnline,PIOnline,Test Case Passed
444,444,7,7,123654,123654,DRAFT,DRAFT,string,string,true,true,true,true,130179,130179,130179,130179,1044648,1044648,112673,112673,0,0,1,1,2,2,682637,682637,682637,682637,1044648,1044648,73328,73328,N/K,N/K,Test3Member Variation1,Test3Member Variation1,N/K,N/K,N/K,N/K,N/K,N/K,N/K,N/K,104,104,POST & CO (P & I),POST & CO (P & I),claims@post-co.com,claims@post-co.com,2022,2022,string,string,USD,USD,263,Test3Policy Risk,Test3Policy Risk,ITALY,ITALY,YA,YA,YACHT CHARTER 13+ PAX,YACHT CHARTER 13+ PAX,0,0,3453466,3453466,N/K,N/K,N/K,N/K,N/K,N/K,N/K,N/K,N/K,N/K,N/K,N/K,f56,f56,2500,2500,2012,2012,TRIESTE,TRIESTE,5,5,N/K,N/K,PIOnline,PIOnline,Test Case Passed
445,445,8,8,123654,123654,DRAFT,DRAFT,string,string,true,true,true,true,130179,130179,130179,130179,1044648,1044648,112673,112673,0,0,1,1,2,2,682637,682637,682637,682637,1044648,1044648,73328,73328,N/K,N/K,Test3Member Variation1,Test3Member Variation1,N/K,N/K,N/K,N/K,N/K,N/K,N/K,N/K,104,104,POST & CO (P & I),POST & CO (P & I),claims@post-co.com,claims@post-co.com,2022,2022,string,string,USD,USD,263,Test3Policy Risk,Test3Policy Risk,ITALY,ITALY,YA,YA,YACHT CHARTER 13+ PAX,YACHT CHARTER 13+ PAX,0,0,3453466,3453466,N/K,N/K,N/K,N/K,N/K,N/K,N/K,N/K,N/K,N/K,N/K,N/K,f56,f56,2500,2500,2012,2012,TRIESTE,TRIESTE,6,6,N/K,N/K,PIOnline,PIOnline,Test Case Passed
446,446,9,9,123654,123654,DRAFT,DRAFT,string,string,true,true,true,true,130179,130179,130179,130179,1044648,1044648,112673,112673,0,0,1,1,2,2,682637,682637,682637,682637,1044648,1044648,73328,73328,N/K,N/K,Test3Member Variation1,Test3Member Variation1,N/K,N/K,N/K,N/K,N/K,N/K,N/K,N/K,104,104,POST & CO (P & I),POST & CO (P & I),claims@post-co.com,claims@post-co.com,2022,2022,string,string,USD,USD,263,Test3Policy Risk,Test3Policy Risk,ITALY,ITALY,YA,YA,YACHT CHARTER 13+ PAX,YACHT CHARTER 13+ PAX,0,0,3453466,3453466,N/K,N/K,N/K,N/K,N/K,N/K,N/K,N/K,N/K,N/K,N/K,N/K,f56,f56,2500,2500,2012,2012,TRIESTE,TRIESTE,3,3,N/K,N/K,PIOnline,PIOnline,Test Case Passed
447,447,10,10,123654,123654,DRAFT,DRAFT,string,string,true,true,true,true,130179,130179,130179,130179,1044648,1044648,112673,112673,0,0,1,1,2,2,682637,682637,682637,682637,1044648,1044648,73328,73328,N/K,N/K,Test3Member Variation1,Test3Member Variation1,N/K,N/K,N/K,N/K,N/K,N/K,N/K,N/K,104,104,POST & CO (P & I),POST & CO (P & I),claims@post-co.com,claims@post-co.com,2022,2022,string,string,USD,USD,263,Test3Policy Risk,Test3Policy Risk,ITALY,ITALY,YA,YA,YACHT CHARTER 13+ PAX,YACHT CHARTER 13+ PAX,0,0,3453466,3453466,N/K,N/K,N/K,N/K,N/K,N/K,N/K,N/K,N/K,N/K,N/K,N/K,f56,f56,2500,2500,2012,2012,TRIESTE,TRIESTE,2,2,N/K,N/K,PIOnline,PIOnline,Test Case Passed
448,448,11,11,123654,123654,DRAFT,DRAFT,string,string,true,true,true,true,130179,130179,130179,130179,1044648,1044648,112673,112673,0,0,1,1,2,2,682637,682637,682637,682637,1044648,1044648,73328,73328,N/K,N/K,Test3Member Variation1,Test3Member Variation1,N/K,N/K,N/K,N/K,N/K,N/K,N/K,N/K,104,104,POST & CO (P & I),POST & CO (P & I),claims@post-co.com,claims@post-co.com,2022,2022,string,string,USD,USD,263,Test3Policy Risk,Test3Policy Risk,ITALY,ITALY,YA,YA,YACHT CHARTER 13+ PAX,YACHT CHARTER 13+ PAX,0,0,3453466,3453466,N/K,N/K,N/K,N/K,N/K,N/K,N/K,N/K,N/K,N/K,N/K,N/K,f56,f56,2500,2500,2012,2012,TRIESTE,TRIESTE,7,7,N/K,N/K,PIOnline,PIOnline,Test Case Passed
449,449,12,12,123654,123654,DRAFT,DRAFT,string,string,true,true,true,true,130179,130179,130179,130179,1044648,1044648,112673,112673,0,0,1,1,2,2,682637,682637,682637,682637,1044648,1044648,73328,73328,N/K,N/K,Test3Member Variation1,Test3Member Variation1,N/K,N/K,N/K,N/K,N/K,N/K,N/K,N/K,104,104,POST & CO (P & I),POST & CO (P & I),claims@post-co.com,claims@post-co.com,2022,2022,string,string,USD,USD,263,Test3Policy Risk,Test3Policy Risk,ITALY,ITALY,YA,YA,YACHT CHARTER 13+ PAX,YACHT CHARTER 13+ PAX,0,0,3453466,3453466,N/K,N/K,N/K,N/K,N/K,N/K,N/K,N/K,N/K,N/K,N/K,N/K,f56,f56,2500,2500,2012,2012,TRIESTE,TRIESTE,3,3,N/K,N/K,PIOnline,PIOnline,Test Case Passed
450,450,13,13,123654,123654,DRAFT,DRAFT,string,string,true,true,true,true,130179,130179,130179,130179,1044648,1044648,112673,112673,0,0,1,1,2,2,682637,682637,682637,682637,1044648,1044648,73328,73328,N/K,N/K,Test3Member Variation1,Test3Member Variation1,N/K,N/K,N/K,N/K,N/K,N/K,N/K,N/K,104,104,POST & CO (P & I),POST & CO (P & I),claims@post-co.com,claims@post-co.com,2022,2022,string,string,USD,USD,263,Test3Policy Risk,Test3Policy Risk,ITALY,ITALY,YA,YA,YACHT CHARTER 13+ PAX,YACHT CHARTER 13+ PAX,0,0,3453466,3453466,N/K,N/K,N/K,N/K,N/K,N/K,N/K,N/K,N/K,N/K,N/K,N/K,f56,f56,2500,2500,2012,2012,TRIESTE,TRIESTE,5,5,N/K,N/K,PIOnline,PIOnline,Test Case Passed
451,451,14,14,123654,123654,DRAFT,DRAFT,string,string,true,true,true,true,130179,130179,130179,130179,1044648,1044648,112673,112673,0,0,1,1,2,2,682637,682637,682637,682637,1044648,1044648,73328,73328,N/K,N/K,Test3Member Variation1,Test3Member Variation1,N/K,N/K,N/K,N/K,N/K,N/K,N/K,N/K,104,104,POST & CO (P & I),POST & CO (P & I),claims@post-co.com,claims@post-co.com,2022,2022,string,string,USD,USD,263,Test3Policy Risk,Test3Policy Risk,ITALY,ITALY,YA,YA,YACHT CHARTER 13+ PAX,YACHT CHARTER 13+ PAX,0,0,3453466,3453466,N/K,N/K,N/K,N/K,N/K,N/K,N/K,N/K,N/K,N/K,N/K,N/K,f56,f56,2500,2500,2012,2012,TRIESTE,TRIESTE,4,4,N/K,N/K,PIOnline,PIOnline,Test Case Passed
452,452,15,15,123654,123654,DRAFT,DRAFT,string,string,true,true,true,true,130179,130179,130179,130179,1044648,1044648,112673,112673,0,0,1,1,2,2,682637,682637,682637,682637,1044648,1044648,73328,73328,N/K,N/K,Test3Member Variation1,Test3Member Variation1,N/K,N/K,N/K,N/K,N/K,N/K,N/K,N/K,104,104,POST & CO (P & I),POST & CO (P & I),claims@post-co.com,claims@post-co.com,2022,2022,string,string,USD,USD,263,Test3Policy Risk,Test3Policy Risk,ITALY,ITALY,YA,YA,YACHT CHARTER 13+ PAX,YACHT CHARTER 13+ PAX,0,0,3453466,3453466,N/K,N/K,N/K,N/K,N/K,N/K,N/K,N/K,N/K,N/K,N/K,N/K,f56,f56,2500,2500,2012,2012,TRIESTE,TRIESTE,2,2,N/K,N/K,PIOnline,PIOnline,Test Case Passed
453,453,16,16,123654,123654,DRAFT,DRAFT,string,string,true,true,true,true,130179,130179,130179,130179,1044648,1044648,112673,112673,0,0,1,1,2,2,682637,682637,682637,682637,1044648,1044648,73328,73328,N/K,N/K,Test3Member Variation1,Test3Member Variation1,N/K,N/K,N/K,N/K,N/K,N/K,N/K,N/K,104,104,POST & CO (P & I),POST & CO (P & I),claims@post-co.com,claims@post-co.com,2022,2022,string,string,USD,USD,263,Test3Policy Risk,Test3Policy Risk,ITALY,ITALY,YA,YA,YACHT CHARTER 13+ PAX,YACHT CHARTER 13+ PAX,0,0,3453466,3453466,N/K,N/K,N/K,N/K,N/K,N/K,N/K,N/K,N/K,N/K,N/K,N/K,f56,f56,2500,2500,2012,2012,TRIESTE,TRIESTE,7,7,N/K,N/K,PIOnline,PIOnline,Test Case Passed
454,454,17,17,123654,123654,DRAFT,DRAFT,string,string,true,true,true,true,130179,130179,130179,130179,1044648,1044648,112673,112673,0,0,1,1,2,2,682637,682637,682637,682637,1044648,1044648,73328,73328,N/K,N/K,Test3Member Variation1,Test3Member Variation1,N/K,N/K,N/K,N/K,N/K,N/K,N/K,N/K,104,104,POST & CO (P & I),POST & CO (P & I),claims@post-co.com,claims@post-co.com,2022,2022,string,string,USD,USD,263,Test3Policy Risk,Test3Policy Risk,ITALY,ITALY,YA,YA,YACHT CHARTER 13+ PAX,YACHT CHARTER 13+ PAX,0,0,3453466,3453466,N/K,N/K,N/K,N/K,N/K,N/K,N/K,N/K,N/K,N/K,N/K,N/K,f56,f56,2500,2500,2012,2012,TRIESTE,TRIESTE,3,3,N/K,N/K,PIOnline,PIOnline,Test Case Passed
455,455,19,19,123654,123654,DRAFT,DRAFT,string,string,true,true,true,true,130179,130179,130179,130179,1044648,1044648,112673,112673,0,0,1,1,2,2,682637,682637,682637,682637,1044648,1044648,73328,73328,N/K,N/K,Test3Member Variation1,Test3Member Variation1,N/K,N/K,N/K,N/K,N/K,N/K,N/K,N/K,104,104,POST & CO (P & I),POST & CO (P & I),claims@post-co.com,claims@post-co.com,2022,2022,string,string,USD,USD,263,Test3Policy Risk,Test3Policy Risk,ITALY,ITALY,YA,YA,YACHT CHARTER 13+ PAX,YACHT CHARTER 13+ PAX,0,0,3453466,3453466,N/K,N/K,N/K,N/K,N/K,N/K,N/K,N/K,N/K,N/K,N/K,N/K,f56,f56,2500,2500,2012,2012,TRIESTE,TRIESTE,5,5,N/K,N/K,PIOnline,PIOnline,Test Case Passed
456,456,20,20,123654,123654,DRAFT,DRAFT,string,string,true,true,true,true,130179,130179,130179,130179,1044648,1044648,112673,112673,0,0,1,1,2,2,682637,682637,682637,682637,1044648,1044648,73328,73328,N/K,N/K,Test3Member Variation1,Test3Member Variation1,N/K,N/K,N/K,N/K,N/K,N/K,N/K,N/K,104,104,POST & CO (P & I),POST & CO (P & I),claims@post-co.com,claims@post-co.com,2022,2022,string,string,USD,USD,263,Test3Policy Risk,Test3Policy Risk,ITALY,ITALY,YA,YA,YACHT CHARTER 13+ PAX,YACHT CHARTER 13+ PAX,0,0,3453466,3453466,N/K,N/K,N/K,N/K,N/K,N/K,N/K,N/K,N/K,N/K,N/K,N/K,f56,f56,2500,2500,2012,2012,TRIESTE,TRIESTE,2,2,N/K,N/K,PIOnline,PIOnline,Test Case Passed
457,457,21,21,123654,123654,DRAFT,DRAFT,string,string,true,true,true,true,130179,130179,130179,130179,1044648,1044648,112673,112673,0,0,1,1,2,2,682637,682637,682637,682637,1044648,1044648,73328,73328,N/K,N/K,Test3Member Variation1,Test3Member Variation1,N/K,N/K,N/K,N/K,N/K,N/K,N/K,N/K,104,104,POST & CO (P & I),POST & CO (P & I),claims@post-co.com,claims@post-co.com,2022,2022,string,string,USD,USD,263,Test3Policy Risk,Test3Policy Risk,ITALY,ITALY,YA,YA,YACHT CHARTER 13+ PAX,YACHT CHARTER 13+ PAX,0,0,3453466,3453466,N/K,N/K,N/K,N/K,N/K,N/K,N/K,N/K,N/K,N/K,N/K,N/K,f56,f56,2500,2500,2012,2012,TRIESTE,TRIESTE,6,6,N/K,N/K,PIOnline,PIOnline,Test Case Passed
458,458,22,22,123654,123654,DRAFT,DRAFT,string,string,true,true,true,true,130179,130179,130179,130179,1044648,1044648,112673,112673,0,0,1,1,2,2,682637,682637,682637,682637,1044648,1044648,73328,73328,N/K,N/K,Test3Member Variation1,Test3Member Variation1,N/K,N/K,N/K,N/K,N/K,N/K,N/K,N/K,104,104,POST & CO (P & I),POST & CO (P & I),claims@post-co.com,claims@post-co.com,2022,2022,string,string,USD,USD,263,Test3Policy Risk,Test3Policy Risk,ITALY,ITALY,YA,YA,YACHT CHARTER 13+ PAX,YACHT CHARTER 13+ PAX,0,0,3453466,3453466,N/K,N/K,N/K,N/K,N/K,N/K,N/K,N/K,N/K,N/K,N/K,N/K,f56,f56,2500,2500,2012,2012,TRIESTE,TRIESTE,3,3,N/K,N/K,PIOnline,PIOnline,Test Case Passed
459,459,23,23,123654,123654,DRAFT,DRAFT,string,string,true,true,true,true,130179,130179,130179,130179,1044648,1044648,112673,112673,0,0,1,1,2,2,682637,682637,682637,682637,1044648,1044648,73328,73328,N/K,N/K,Test3Member Variation1,Test3Member Variation1,N/K,N/K,N/K,N/K,N/K,N/K,N/K,N/K,104,104,POST & CO (P & I),POST & CO (P & I),claims@post-co.com,claims@post-co.com,2022,2022,string,string,USD,USD,263,Test3Policy Risk,Test3Policy Risk,ITALY,ITALY,YA,YA,YACHT CHARTER 13+ PAX,YACHT CHARTER 13+ PAX,0,0,3453466,3453466,N/K,N/K,N/K,N/K,N/K,N/K,N/K,N/K,N/K,N/K,N/K,N/K,f56,f56,2500,2500,2012,2012,TRIESTE,TRIESTE,6,6,N/K,N/K,PIOnline,PIOnline,Test Case Passed
460,460,24,24,123654,123654,DRAFT,DRAFT,string,string,true,true,true,true,130179,130179,130179,130179,1044648,1044648,112673,112673,0,0,1,1,2,2,682637,682637,682637,682637,1044648,1044648,73328,73328,N/K,N/K,Test3Member Variation1,Test3Member Variation1,N/K,N/K,N/K,N/K,N/K,N/K,N/K,N/K,104,104,POST & CO (P & I),POST & CO (P & I),claims@post-co.com,claims@post-co.com,2022,2022,string,string,USD,USD,263,Test3Policy Risk,Test3Policy Risk,ITALY,ITALY,YA,YA,YACHT CHARTER 13+ PAX,YACHT CHARTER 13+ PAX,0,0,3453466,3453466,N/K,N/K,N/K,N/K,N/K,N/K,N/K,N/K,N/K,N/K,N/K,N/K,f56,f56,2500,2500,2012,2012,TRIESTE,TRIESTE,5,5,N/K,N/K,PIOnline,PIOnline,Test Case Passed
461,461,25,25,123654,123654,DRAFT,DRAFT,string,string,true,true,true,true,130179,130179,130179,130179,1044648,1044648,112673,112673,0,0,1,1,2,2,682637,682637,682637,682637,1044648,1044648,73328,73328,N/K,N/K,Test3Member Variation1,Test3Member Variation1,N/K,N/K,N/K,N/K,N/K,N/K,N/K,N/K,104,104,POST & CO (P & I),POST & CO (P & I),claims@post-co.com,claims@post-co.com,2022,2022,string,string,USD,USD,263,Test3Policy Risk,Test3Policy Risk,ITALY,ITALY,YA,YA,YACHT CHARTER 13+ PAX,YACHT CHARTER 13+ PAX,0,0,3453466,3453466,N/K,N/K,N/K,N/K,N/K,N/K,N/K,N/K,N/K,N/K,N/K,N/K,f56,f56,2500,2500,2012,2012,TRIESTE,TRIESTE,7,7,N/K,N/K,PIOnline,PIOnline,Test Case Passed
462,462,26,26,123654,123654,DRAFT,DRAFT,string,string,true,true,true,true,130179,130179,130179,130179,1044648,1044648,112673,112673,0,0,1,1,2,2,682637,682637,682637,682637,1044648,1044648,73328,73328,N/K,N/K,Test3Member Variation1,Test3Member Variation1,N/K,N/K,N/K,N/K,N/K,N/K,N/K,N/K,104,104,POST & CO (P & I),POST & CO (P & I),claims@post-co.com,claims@post-co.com,2022,2022,string,string,USD,USD,263,Test3Policy Risk,Test3Policy Risk,ITALY,ITALY,YA,YA,YACHT CHARTER 13+ PAX,YACHT CHARTER 13+ PAX,0,0,3453466,3453466,N/K,N/K,N/K,N/K,N/K,N/K,N/K,N/K,N/K,N/K,N/K,N/K,f56,f56,2500,2500,2012,2012,TRIESTE,TRIESTE,2,2,N/K,N/K,PIOnline,PIOnline,Test Case Passed
